{
 "type": "FeatureCollection",
 "_comment_th": "โครงข่ายเส้นทางในวิทยาเขต (ถนน + ทางเดิน) จาก OpenStreetMap (ODbL) ด้วย tools/osm_import.py — ไม่รวมทางเดินในอาคารเพราะ GPS ใช้ในร่มไม่ได้ เส้นทางที่ OSM ยังไม่มีให้บันทึกเพิ่มด้วยโหมดบันทึกเส้นทาง (ดู SETUP.md ข้อ 3)",
 "features": [
  {
   "type": "Feature",
   "geometry": {
    "type": "LineString",
    "coordinates": [
     [
      101.3656133,
      14.1652591
     ],
     [
      101.3656995,
      14.1652404
     ],
     [
      101.3657615,
      14.1652524
     ],
     [
      101.3658152,
      14.165294
     ],
     [
      101.3658697,
      14.1653647
     ]
    ]
   },
   "properties": {
    "id": "osm_w518183928_0",
    "type": "road",
    "oneway": false,
    "lit": false,
    "covered": false,
    "source": "osm:way/518183928",
    "osmHighway": "tertiary"
   }
  },
  {
   "type": "Feature",
   "geometry": {
    "type": "LineString",
    "coordinates": [
     [
      101.3646542,
      14.1661254
     ],
     [
      101.3651276,
      14.1657033
     ],
     [
      101.365343,
      14.1655103
     ],
     [
      101.3653774,
      14.1654783
     ],
     [
      101.3656133,
      14.1652591
     ]
    ]
   },
   "properties": {
    "id": "osm_w518183944_0",
    "type": "road",
    "oneway": false,
    "lit": false,
    "covered": false,
    "source": "osm:way/518183944",
    "osmHighway": "tertiary"
   }
  },
  {
   "type": "Feature",
   "geometry": {
    "type": "LineString",
    "coordinates": [
     [
      101.3656133,
      14.1652591
     ],
     [
      101.3656932,
      14.165145
     ],
     [
      101.3657462,
      14.1649888
     ],
     [
      101.365781,
      14.1648257
     ]
    ]
   },
   "properties": {
    "id": "osm_w518183951_0",
    "type": "road",
    "oneway": false,
    "lit": false,
    "covered": false,
    "source": "osm:way/518183951",
    "osmHighway": "tertiary"
   }
  },
  {
   "type": "Feature",
   "geometry": {
    "type": "LineString",
    "coordinates": [
     [
      101.3501806,
      14.1581525
     ],
     [
      101.3501427,
      14.1595709
     ],
     [
      101.3500518,
      14.159843
     ],
     [
      101.3499392,
      14.1600406
     ],
     [
      101.3497729,
      14.1602071
     ],
     [
      101.3493491,
      14.1605868
     ],
     [
      101.3491935,
      14.1608468
     ],
     [
      101.3491189,
      14.1611007
     ],
     [
      101.3491383,
      14.1612138
     ],
     [
      101.3491847,
      14.1613318
     ],
     [
      101.3500023,
      14.1622813
     ],
     [
      101.3502047,
      14.1624897
     ],
     [
      101.3504073,
      14.1626471
     ],
     [
      101.3506575,
      14.1627875
     ],
     [
      101.3513137,
      14.163003
     ],
     [
      101.3527494,
      14.1633547
     ],
     [
      101.3531477,
      14.1633869
     ],
     [
      101.353544,
      14.1633232
     ],
     [
      101.3538908,
      14.1632276
     ],
     [
      101.3542968,
      14.1630192
     ],
     [
      101.3548071,
      14.1627222
     ],
     [
      101.357377,
      14.161237
     ],
     [
      101.3583309,
      14.160719
     ],
     [
      101.3586317,
      14.1605822
     ],
     [
      101.3589249,
      14.1605316
     ],
     [
      101.3592325,
      14.1605384
     ],
     [
      101.3594019,
      14.1605746
     ],
     [
      101.3595527,
      14.1606386
     ],
     [
      101.3606476,
      14.1612999
     ],
     [
      101.3615128,
      14.1618151
     ],
     [
      101.3620747,
      14.162153
     ],
     [
      101.363591,
      14.163072
     ],
     [
      101.3636716,
      14.1630515
     ],
     [
      101.3639336,
      14.1632113
     ],
     [
      101.3639555,
      14.1632909
     ],
     [
      101.3639684,
      14.1633029
     ],
     [
      101.3642524,
      14.163466
     ],
     [
      101.3645288,
      14.1635868
     ],
     [
      101.3647306,
      14.1636458
     ],
     [
      101.3649755,
      14.1636498
     ],
     [
      101.3651267,
      14.1636193
     ]
    ]
   },
   "properties": {
    "id": "osm_w518187188_0",
    "type": "footway",
    "oneway": false,
    "lit": false,
    "covered": false,
    "source": "osm:way/518187188",
    "osmHighway": "footway"
   }
  },
  {
   "type": "Feature",
   "geometry": {
    "type": "LineString",
    "coordinates": [
     [
      101.3499553,
      14.1570186
     ],
     [
      101.3496982,
      14.1572167
     ],
     [
      101.3493167,
      14.1575119
     ],
     [
      101.3493152,
      14.1575131
     ],
     [
      101.3487618,
      14.1579413
     ],
     [
      101.3486278,
      14.1580449
     ],
     [
      101.3481399,
      14.1584221
     ],
     [
      101.3479436,
      14.1585738
     ],
     [
      101.347949,
      14.158657
     ],
     [
      101.3480133,
      14.1587038
     ],
     [
      101.3480777,
      14.158683
     ],
     [
      101.3487316,
      14.1581851
     ],
     [
      101.3491774,
      14.1578456
     ],
     [
      101.3493703,
      14.1577816
     ],
     [
      101.3495902,
      14.1577764
     ],
     [
      101.3499456,
      14.15781
     ]
    ]
   },
   "properties": {
    "id": "osm_w518187193_0",
    "type": "road",
    "oneway": false,
    "lit": false,
    "covered": false,
    "source": "osm:way/518187193",
    "osmHighway": "service"
   }
  },
  {
   "type": "Feature",
   "geometry": {
    "type": "LineString",
    "coordinates": [
     [
      101.3488697,
      14.1605224
     ],
     [
      101.3487645,
      14.1604749
     ],
     [
      101.3486494,
      14.1604612
     ],
     [
      101.3485383,
      14.1604816
     ],
     [
      101.3484387,
      14.1605336
     ],
     [
      101.3483599,
      14.1606122
     ],
     [
      101.3483091,
      14.1607101
     ],
     [
      101.3482915,
      14.1608033
     ],
     [
      101.3482996,
      14.1608976
     ],
     [
      101.3483328,
      14.1609867
     ],
     [
      101.3483888,
      14.1610643
     ],
     [
      101.3484634,
      14.1611248
     ],
     [
      101.3485517,
      14.1611645
     ],
     [
      101.3486475,
      14.1611806
     ],
     [
      101.3487444,
      14.161172
     ],
     [
      101.3488049,
      14.1611503
     ],
     [
      101.3488565,
      14.1611313
     ],
     [
      101.3489222,
      14.1610741
     ],
     [
      101.3489836,
      14.1610013
     ],
     [
      101.349024,
      14.1609021
     ],
     [
      101.3490327,
      14.1607959
     ],
     [
      101.3490088,
      14.1606918
     ],
     [
      101.3489546,
      14.160599
     ],
     [
      101.3488697,
      14.1605224
     ]
    ]
   },
   "properties": {
    "id": "osm_w518187195_0",
    "type": "road",
    "oneway": false,
    "lit": false,
    "covered": false,
    "source": "osm:way/518187195",
    "osmHighway": "unclassified"
   }
  },
  {
   "type": "Feature",
   "geometry": {
    "type": "LineString",
    "coordinates": [
     [
      101.3488565,
      14.1611313
     ],
     [
      101.3499982,
      14.162474
     ],
     [
      101.3501655,
      14.162636
     ],
     [
      101.3503401,
      14.1627627
     ],
     [
      101.350595,
      14.1628959
     ],
     [
      101.351026,
      14.1630548
     ]
    ]
   },
   "properties": {
    "id": "osm_w518187197_0",
    "type": "road",
    "oneway": true,
    "lit": false,
    "covered": false,
    "source": "osm:way/518187197",
    "osmHighway": "unclassified"
   }
  },
  {
   "type": "Feature",
   "geometry": {
    "type": "LineString",
    "coordinates": [
     [
      101.3429222,
      14.1565302
     ],
     [
      101.3428656,
      14.1565819
     ],
     [
      101.3428159,
      14.1566206
     ],
     [
      101.3427108,
      14.1566988
     ],
     [
      101.3426708,
      14.1567321
     ],
     [
      101.342443,
      14.1569128
     ],
     [
      101.3423408,
      14.156998
     ],
     [
      101.3422726,
      14.157063
     ],
     [
      101.3424129,
      14.1572266
     ],
     [
      101.3430727,
      14.1580016
     ],
     [
      101.3432712,
      14.1582565
     ],
     [
      101.3433356,
      14.158449
     ],
     [
      101.3434053,
      14.1587975
     ],
     [
      101.3434428,
      14.1589691
     ],
     [
      101.3435448,
      14.159146
     ],
     [
      101.3438067,
      14.1594622
     ],
     [
      101.3444028,
      14.160182
     ],
     [
      101.3451994,
      14.1611439
     ],
     [
      101.345535,
      14.161549
     ],
     [
      101.3459317,
      14.1618856
     ],
     [
      101.3462213,
      14.162
     ],
     [
      101.3465542,
      14.162038
     ],
     [
      101.3468543,
      14.1620104
     ],
     [
      101.3469636,
      14.1619816
     ],
     [
      101.3471443,
      14.1619339
     ],
     [
      101.3474447,
      14.1617623
     ],
     [
      101.3477508,
      14.1615356
     ],
     [
      101.3483888,
      14.1610643
     ]
    ]
   },
   "properties": {
    "id": "osm_w518187199_0",
    "type": "road",
    "oneway": false,
    "lit": false,
    "covered": false,
    "source": "osm:way/518187199",
    "osmHighway": "service"
   }
  },
  {
   "type": "Feature",
   "geometry": {
    "type": "LineString",
    "coordinates": [
     [
      101.3655839,
      14.163566
     ],
     [
      101.3651423,
      14.1636551
     ],
     [
      101.3650723,
      14.1636692
     ],
     [
      101.3649613,
      14.1636916
     ],
     [
      101.3648379,
      14.1636952
     ],
     [
      101.3647114,
      14.1636811
     ],
     [
      101.3645628,
      14.1636454
     ],
     [
      101.3642631,
      14.1635211
     ],
     [
      101.3639436,
      14.1633329
     ],
     [
      101.3638982,
      14.1633054
     ],
     [
      101.3635873,
      14.163117
     ],
     [
      101.3620585,
      14.1621907
     ],
     [
      101.3614836,
      14.1618484
     ],
     [
      101.3606247,
      14.1613369
     ],
     [
      101.3595355,
      14.1606757
     ],
     [
      101.3593604,
      14.1606103
     ],
     [
      101.3591402,
      14.1605741
     ],
     [
      101.3588418,
      14.1605868
     ],
     [
      101.358612,
      14.1606371
     ],
     [
      101.3584768,
      14.1607012
     ],
     [
      101.3574146,
      14.1612892
     ],
     [
      101.3566262,
      14.1617404
     ],
     [
      101.3540142,
      14.1632354
     ],
     [
      101.3536358,
      14.1633645
     ],
     [
      101.3533693,
      14.1634154
     ],
     [
      101.3530034,
      14.1634443
     ],
     [
      101.3527559,
      14.163418
     ],
     [
      101.3510415,
      14.1629907
     ]
    ]
   },
   "properties": {
    "id": "osm_w518187202_0",
    "type": "road",
    "oneway": true,
    "lit": false,
    "covered": false,
    "source": "osm:way/518187202",
    "osmHighway": "unclassified"
   }
  },
  {
   "type": "Feature",
   "geometry": {
    "type": "LineString",
    "coordinates": [
     [
      101.3458004,
      14.1578828
     ],
     [
      101.3457591,
      14.1579111
     ],
     [
      101.3458774,
      14.158052
     ],
     [
      101.3459363,
      14.1581222
     ],
     [
      101.3463095,
      14.1585667
     ]
    ]
   },
   "properties": {
    "id": "osm_w518187204_0",
    "type": "footway",
    "oneway": false,
    "lit": false,
    "covered": false,
    "source": "osm:way/518187204",
    "osmHighway": "footway"
   }
  },
  {
   "type": "Feature",
   "geometry": {
    "type": "LineString",
    "coordinates": [
     [
      101.3489935,
      14.1570041
     ],
     [
      101.3489506,
      14.1569407
     ],
     [
      101.3483297,
      14.1574247
     ],
     [
      101.3483265,
      14.1574272
     ],
     [
      101.3476893,
      14.1579241
     ]
    ]
   },
   "properties": {
    "id": "osm_w518187208_0",
    "type": "footway",
    "oneway": false,
    "lit": false,
    "covered": false,
    "source": "osm:way/518187208",
    "osmHighway": "footway"
   }
  },
  {
   "type": "Feature",
   "geometry": {
    "type": "LineString",
    "coordinates": [
     [
      101.3480133,
      14.1587038
     ],
     [
      101.3479522,
      14.1588037
     ],
     [
      101.3476408,
      14.1590524
     ]
    ]
   },
   "properties": {
    "id": "osm_w518187210_0",
    "type": "footway",
    "oneway": false,
    "lit": false,
    "covered": false,
    "source": "osm:way/518187210",
    "osmHighway": "footway"
   }
  },
  {
   "type": "Feature",
   "geometry": {
    "type": "LineString",
    "coordinates": [
     [
      101.3614836,
      14.1618484
     ],
     [
      101.3615128,
      14.1618151
     ],
     [
      101.3617138,
      14.1616099
     ],
     [
      101.3620176,
      14.1617772
     ],
     [
      101.3622076,
      14.1618819
     ],
     [
      101.3620747,
      14.162153
     ],
     [
      101.3620585,
      14.1621907
     ]
    ]
   },
   "properties": {
    "id": "osm_w518187212_0",
    "type": "road",
    "oneway": false,
    "lit": false,
    "covered": false,
    "source": "osm:way/518187212",
    "osmHighway": "service"
   }
  },
  {
   "type": "Feature",
   "geometry": {
    "type": "LineString",
    "coordinates": [
     [
      101.3468824,
      14.1581175
     ],
     [
      101.3464574,
      14.1575979
     ],
     [
      101.3463298,
      14.1574418
     ],
     [
      101.3463137,
      14.1574509
     ]
    ]
   },
   "properties": {
    "id": "osm_w518187213_0",
    "type": "footway",
    "oneway": false,
    "lit": false,
    "covered": false,
    "source": "osm:way/518187213",
    "osmHighway": "footway"
   }
  },
  {
   "type": "Feature",
   "geometry": {
    "type": "LineString",
    "coordinates": [
     [
      101.3477835,
      14.1580461
     ],
     [
      101.3476893,
      14.1579241
     ],
     [
      101.3474667,
      14.1576564
     ],
     [
      101.3468824,
      14.1581175
     ],
     [
      101.3463095,
      14.1585667
     ],
     [
      101.3461853,
      14.1586709
     ],
     [
      101.3461026,
      14.1587402
     ],
     [
      101.3459832,
      14.1588376
     ]
    ]
   },
   "properties": {
    "id": "osm_w518187214_0",
    "type": "footway",
    "oneway": false,
    "lit": false,
    "covered": false,
    "source": "osm:way/518187214",
    "osmHighway": "footway"
   }
  },
  {
   "type": "Feature",
   "geometry": {
    "type": "LineString",
    "coordinates": [
     [
      101.3449395,
      14.1663967
     ],
     [
      101.3442838,
      14.1664625
     ],
     [
      101.3430255,
      14.1665888
     ],
     [
      101.3425041,
      14.1666411
     ],
     [
      101.3421339,
      14.1666307
     ],
     [
      101.3418496,
      14.1665267
     ],
     [
      101.341635,
      14.1663551
     ],
     [
      101.3412327,
      14.1658401
     ],
     [
      101.341002,
      14.1656945
     ],
     [
      101.3406855,
      14.1656477
     ]
    ]
   },
   "properties": {
    "id": "osm_w518187215_0",
    "type": "road",
    "oneway": false,
    "lit": false,
    "covered": false,
    "source": "osm:way/518187215",
    "osmHighway": "service"
   }
  },
  {
   "type": "Feature",
   "geometry": {
    "type": "LineString",
    "coordinates": [
     [
      101.3419891,
      14.1567325
     ],
     [
      101.3422726,
      14.157063
     ]
    ]
   },
   "properties": {
    "id": "osm_w518187216_0",
    "type": "road",
    "oneway": false,
    "lit": false,
    "covered": false,
    "source": "osm:way/518187216",
    "osmHighway": "service"
   }
  },
  {
   "type": "Feature",
   "geometry": {
    "type": "LineString",
    "coordinates": [
     [
      101.3465884,
      14.15916
     ],
     [
      101.3468619,
      14.1594939
     ],
     [
      101.3469564,
      14.1596094
     ],
     [
      101.3470197,
      14.1596866
     ],
     [
      101.347037,
      14.1597077
     ],
     [
      101.3467666,
      14.1599191
     ],
     [
      101.3466424,
      14.1600162
     ],
     [
      101.346237,
      14.1603336
     ],
     [
      101.3455694,
      14.1608564
     ],
     [
      101.3451994,
      14.1611439
     ]
    ]
   },
   "properties": {
    "id": "osm_w518187217_0",
    "type": "road",
    "oneway": false,
    "lit": false,
    "covered": false,
    "source": "osm:way/518187217",
    "osmHighway": "service"
   }
  },
  {
   "type": "Feature",
   "geometry": {
    "type": "LineString",
    "coordinates": [
     [
      101.3419891,
      14.1567325
     ],
     [
      101.341506,
      14.1561171
     ],
     [
      101.3412754,
      14.1557582
     ],
     [
      101.3411842,
      14.1553473
     ],
     [
      101.3412381,
      14.1549692
     ],
     [
      101.3414795,
      14.1546623
     ],
     [
      101.3419569,
      14.1542566
     ],
     [
      101.3422841,
      14.1541213
     ],
     [
      101.3425953,
      14.1540797
     ],
     [
      101.342933,
      14.1541198
     ],
     [
      101.3432283,
      14.1543086
     ],
     [
      101.3436357,
      14.1547803
     ],
     [
      101.3438613,
      14.1549588
     ],
     [
      101.3441188,
      14.1550472
     ],
     [
      101.3445104,
      14.1550472
     ],
     [
      101.346801,
      14.1544126
     ],
     [
      101.3468574,
      14.1544118
     ],
     [
      101.3472462,
      14.154371
     ],
     [
      101.3476486,
      14.1544178
     ],
     [
      101.3479651,
      14.154553
     ],
     [
      101.3483137,
      14.1547975
     ],
     [
      101.3497139,
      14.1564308
     ],
     [
      101.3498587,
      14.1567065
     ],
     [
      101.3499553,
      14.1570186
     ]
    ]
   },
   "properties": {
    "id": "osm_w518187218_0",
    "type": "road",
    "oneway": false,
    "lit": false,
    "covered": false,
    "source": "osm:way/518187218",
    "osmHighway": "track"
   }
  },
  {
   "type": "Feature",
   "geometry": {
    "type": "LineString",
    "coordinates": [
     [
      101.3463095,
      14.1585667
     ],
     [
      101.3463236,
      14.1585832
     ],
     [
      101.34717,
      14.1595781
     ],
     [
      101.3477195,
      14.1602217
     ],
     [
      101.3480258,
      14.1606024
     ],
     [
      101.3483091,
      14.1607101
     ]
    ]
   },
   "properties": {
    "id": "osm_w518187219_0",
    "type": "road",
    "oneway": false,
    "lit": false,
    "covered": false,
    "source": "osm:way/518187219",
    "osmHighway": "service"
   }
  },
  {
   "type": "Feature",
   "geometry": {
    "type": "LineString",
    "coordinates": [
     [
      101.3466424,
      14.1600162
     ],
     [
      101.3459644,
      14.1592261
     ],
     [
      101.3457089,
      14.1594165
     ],
     [
      101.3457079,
      14.1594172
     ],
     [
      101.3455622,
      14.1595368
     ],
     [
      101.3456835,
      14.159677
     ],
     [
      101.3461148,
      14.1601861
     ]
    ]
   },
   "properties": {
    "id": "osm_w518187221_0",
    "type": "road",
    "oneway": false,
    "lit": false,
    "covered": false,
    "source": "osm:way/518187221",
    "osmHighway": "service"
   }
  },
  {
   "type": "Feature",
   "geometry": {
    "type": "LineString",
    "coordinates": [
     [
      101.3445104,
      14.1588911
     ],
     [
      101.3438067,
      14.1594622
     ]
    ]
   },
   "properties": {
    "id": "osm_w518187222_0",
    "type": "road",
    "oneway": false,
    "lit": false,
    "covered": false,
    "source": "osm:way/518187222",
    "osmHighway": "service"
   }
  },
  {
   "type": "Feature",
   "geometry": {
    "type": "LineString",
    "coordinates": [
     [
      101.3499553,
      14.1570186
     ],
     [
      101.3499456,
      14.15781
     ],
     [
      101.3499231,
      14.1594477
     ],
     [
      101.3498694,
      14.1597285
     ],
     [
      101.3497139,
      14.1599574
     ],
     [
      101.3489546,
      14.160599
     ]
    ]
   },
   "properties": {
    "id": "osm_w518187224_0",
    "type": "road",
    "oneway": false,
    "lit": false,
    "covered": false,
    "source": "osm:way/518187224",
    "osmHighway": "service"
   }
  },
  {
   "type": "Feature",
   "geometry": {
    "type": "LineString",
    "coordinates": [
     [
      101.3468824,
      14.1581175
     ],
     [
      101.3470032,
      14.1582664
     ],
     [
      101.3473425,
      14.1586846
     ],
     [
      101.3475087,
      14.1588896
     ],
     [
      101.3475709,
      14.1589663
     ],
     [
      101.3476408,
      14.1590524
     ],
     [
      101.348582,
      14.1602019
     ],
     [
      101.3486494,
      14.1604612
     ]
    ]
   },
   "properties": {
    "id": "osm_w518187226_0",
    "type": "road",
    "oneway": false,
    "lit": false,
    "covered": false,
    "source": "osm:way/518187226",
    "osmHighway": "service"
   }
  },
  {
   "type": "Feature",
   "geometry": {
    "type": "LineString",
    "coordinates": [
     [
      101.3433785,
      14.164623
     ],
     [
      101.3436199,
      14.164623
     ],
     [
      101.343695,
      14.1646698
     ],
     [
      101.3436979,
      14.164802
     ],
     [
      101.343676,
      14.1651679
     ],
     [
      101.343672,
      14.1653321
     ],
     [
      101.3443235,
      14.1653448
     ],
     [
      101.3444955,
      14.1653481
     ],
     [
      101.344673,
      14.1653516
     ],
     [
      101.3448303,
      14.1653537
     ],
     [
      101.34497,
      14.1653579
     ]
    ]
   },
   "properties": {
    "id": "osm_w518190339_0",
    "type": "road",
    "oneway": false,
    "lit": false,
    "covered": false,
    "source": "osm:way/518190339",
    "osmHighway": "service"
   }
  },
  {
   "type": "Feature",
   "geometry": {
    "type": "LineString",
    "coordinates": [
     [
      101.3482708,
      14.1580537
     ],
     [
      101.3483451,
      14.1579992
     ],
     [
      101.3484717,
      14.1579065
     ],
     [
      101.3485254,
      14.1579169
     ],
     [
      101.3486278,
      14.1580449
     ],
     [
      101.3487316,
      14.1581851
     ]
    ]
   },
   "properties": {
    "id": "osm_w518190340_0",
    "type": "road",
    "oneway": false,
    "lit": false,
    "covered": false,
    "source": "osm:way/518190340",
    "osmHighway": "service"
   }
  },
  {
   "type": "Feature",
   "geometry": {
    "type": "LineString",
    "coordinates": [
     [
      101.343931,
      14.1579418
     ],
     [
      101.343931,
      14.1579418
     ],
     [
      101.3436091,
      14.1575699
     ],
     [
      101.3430727,
      14.1580016
     ]
    ]
   },
   "properties": {
    "id": "osm_w518190342_0",
    "type": "road",
    "oneway": false,
    "lit": false,
    "covered": false,
    "source": "osm:way/518190342",
    "osmHighway": "service"
   }
  },
  {
   "type": "Feature",
   "geometry": {
    "type": "LineString",
    "coordinates": [
     [
      101.3453365,
      14.1635151
     ],
     [
      101.3451584,
      14.1621963
     ],
     [
      101.34513,
      14.1619859
     ],
     [
      101.3451404,
      14.1618908
     ],
     [
      101.3452024,
      14.1618065
     ],
     [
      101.3453172,
      14.1617292
     ],
     [
      101.345535,
      14.161549
     ]
    ]
   },
   "properties": {
    "id": "osm_w518190347_0",
    "type": "road",
    "oneway": false,
    "lit": false,
    "covered": false,
    "source": "osm:way/518190347",
    "osmHighway": "service"
   }
  },
  {
   "type": "Feature",
   "geometry": {
    "type": "LineString",
    "coordinates": [
     [
      101.3449819,
      14.1647744
     ],
     [
      101.34497,
      14.1653579
     ],
     [
      101.344967,
      14.1654513
     ],
     [
      101.3449622,
      14.1656168
     ],
     [
      101.3449395,
      14.1663967
     ]
    ]
   },
   "properties": {
    "id": "osm_w518190350_0",
    "type": "road",
    "oneway": false,
    "lit": false,
    "covered": false,
    "source": "osm:way/518190350",
    "osmHighway": "service"
   }
  },
  {
   "type": "Feature",
   "geometry": {
    "type": "LineString",
    "coordinates": [
     [
      101.3452163,
      14.1638045
     ],
     [
      101.3449322,
      14.1638005
     ],
     [
      101.3448785,
      14.1638136
     ],
     [
      101.3448644,
      14.163846
     ],
     [
      101.3448396,
      14.164815
     ],
     [
      101.3448303,
      14.1653537
     ]
    ]
   },
   "properties": {
    "id": "osm_w518190354_0",
    "type": "road",
    "oneway": false,
    "lit": false,
    "covered": false,
    "source": "osm:way/518190354",
    "osmHighway": "service"
   }
  },
  {
   "type": "Feature",
   "geometry": {
    "type": "LineString",
    "coordinates": [
     [
      101.3449291,
      14.1679727
     ],
     [
      101.3466988,
      14.1679971
     ],
     [
      101.3469134,
      14.1679243
     ],
     [
      101.3470534,
      14.1677854
     ],
     [
      101.3471499,
      14.167567
     ],
     [
      101.3471928,
      14.1666619
     ],
     [
      101.3470525,
      14.1661857
     ]
    ]
   },
   "properties": {
    "id": "osm_w518190356_0",
    "type": "road",
    "oneway": false,
    "lit": false,
    "covered": false,
    "source": "osm:way/518190356",
    "osmHighway": "service"
   }
  },
  {
   "type": "Feature",
   "geometry": {
    "type": "LineString",
    "coordinates": [
     [
      101.3637431,
      14.1614008
     ],
     [
      101.3652143,
      14.161372
     ]
    ]
   },
   "properties": {
    "id": "osm_w518190464_0",
    "type": "road",
    "oneway": false,
    "lit": false,
    "covered": false,
    "source": "osm:way/518190464",
    "osmHighway": "service"
   }
  },
  {
   "type": "Feature",
   "geometry": {
    "type": "LineString",
    "coordinates": [
     [
      101.3675429,
      14.1656319
     ],
     [
      101.3666797,
      14.1657726
     ],
     [
      101.3659563,
      14.1658907
     ]
    ]
   },
   "properties": {
    "id": "osm_w518194284_0",
    "type": "road",
    "oneway": false,
    "lit": false,
    "covered": false,
    "source": "osm:way/518194284",
    "osmHighway": "service"
   }
  },
  {
   "type": "Feature",
   "geometry": {
    "type": "LineString",
    "coordinates": [
     [
      101.3657438,
      14.1645879
     ],
     [
      101.3659447,
      14.1646451
     ],
     [
      101.3662416,
      14.1647297
     ],
     [
      101.3665233,
      14.1648259
     ],
     [
      101.3672394,
      14.1650677
     ],
     [
      101.3673384,
      14.1651364
     ],
     [
      101.3677329,
      14.1656009
     ]
    ]
   },
   "properties": {
    "id": "osm_w518194296_0",
    "type": "road",
    "oneway": false,
    "lit": false,
    "covered": false,
    "source": "osm:way/518194296",
    "osmHighway": "service"
   }
  },
  {
   "type": "Feature",
   "geometry": {
    "type": "LineString",
    "coordinates": [
     [
      101.3665233,
      14.1648259
     ],
     [
      101.3666797,
      14.1657726
     ],
     [
      101.3668773,
      14.1669688
     ]
    ]
   },
   "properties": {
    "id": "osm_w518194298_0",
    "type": "road",
    "oneway": false,
    "lit": false,
    "covered": false,
    "source": "osm:way/518194298",
    "osmHighway": "service"
   }
  },
  {
   "type": "Feature",
   "geometry": {
    "type": "LineString",
    "coordinates": [
     [
      101.3649509,
      14.1638288
     ],
     [
      101.3649613,
      14.1636916
     ]
    ]
   },
   "properties": {
    "id": "osm_w518194302_0",
    "type": "road",
    "oneway": false,
    "lit": false,
    "covered": false,
    "source": "osm:way/518194302",
    "osmHighway": "unclassified"
   }
  },
  {
   "type": "Feature",
   "geometry": {
    "type": "LineString",
    "coordinates": [
     [
      101.3651416,
      14.1609261
     ],
     [
      101.3652143,
      14.161372
     ],
     [
      101.3653461,
      14.1620408
     ],
     [
      101.365475,
      14.1628675
     ],
     [
      101.3655783,
      14.1635302
     ],
     [
      101.3655839,
      14.163566
     ]
    ]
   },
   "properties": {
    "id": "osm_w550487068_0",
    "type": "road",
    "oneway": false,
    "lit": false,
    "covered": false,
    "source": "osm:way/550487068",
    "osmHighway": "secondary"
   }
  },
  {
   "type": "Feature",
   "geometry": {
    "type": "LineString",
    "coordinates": [
     [
      101.3453835,
      14.1594246
     ],
     [
      101.3450026,
      14.1597248
     ],
     [
      101.3449877,
      14.1597366
     ],
     [
      101.3449806,
      14.1597421
     ],
     [
      101.3446738,
      14.1599731
     ],
     [
      101.3444454,
      14.1601492
     ],
     [
      101.3444028,
      14.160182
     ],
     [
      101.3441901,
      14.1603336
     ],
     [
      101.3450924,
      14.1614472
     ],
     [
      101.3453172,
      14.1617292
     ],
     [
      101.345501,
      14.1619316
     ],
     [
      101.3456586,
      14.1621565
     ],
     [
      101.3457375,
      14.1624272
     ],
     [
      101.3457375,
      14.1627155
     ],
     [
      101.3457314,
      14.1630686
     ],
     [
      101.3457245,
      14.1637567
     ],
     [
      101.3457193,
      14.1642808
     ],
     [
      101.345714,
      14.164631
     ],
     [
      101.3456867,
      14.1647075
     ],
     [
      101.3456351,
      14.1647575
     ],
     [
      101.3455714,
      14.164781
     ],
     [
      101.3453252,
      14.164771
     ],
     [
      101.3450653,
      14.1647719
     ],
     [
      101.3449819,
      14.1647744
     ],
     [
      101.3448396,
      14.164815
     ]
    ]
   },
   "properties": {
    "id": "osm_w615337783_0",
    "type": "footway",
    "oneway": false,
    "lit": false,
    "covered": false,
    "source": "osm:way/615337783",
    "osmHighway": "footway"
   }
  },
  {
   "type": "Feature",
   "geometry": {
    "type": "LineString",
    "coordinates": [
     [
      101.3436979,
      14.164802
     ],
     [
      101.3443122,
      14.1648058
     ],
     [
      101.3443362,
      14.164806
     ],
     [
      101.3445128,
      14.1648121
     ],
     [
      101.3446816,
      14.1648179
     ],
     [
      101.3448396,
      14.164815
     ]
    ]
   },
   "properties": {
    "id": "osm_w615337784_0",
    "type": "road",
    "oneway": false,
    "lit": false,
    "covered": false,
    "source": "osm:way/615337784",
    "osmHighway": "service"
   }
  },
  {
   "type": "Feature",
   "geometry": {
    "type": "LineString",
    "coordinates": [
     [
      101.3534385,
      14.1597936
     ],
     [
      101.3536129,
      14.1615989
     ],
     [
      101.353696,
      14.1619213
     ],
     [
      101.353744,
      14.16195
     ],
     [
      101.3538198,
      14.1619536
     ],
     [
      101.3543611,
      14.1618437
     ],
     [
      101.3544434,
      14.1618797
     ],
     [
      101.3548071,
      14.1627222
     ]
    ]
   },
   "properties": {
    "id": "osm_w615337788_0",
    "type": "road",
    "oneway": false,
    "lit": false,
    "covered": false,
    "source": "osm:way/615337788",
    "osmHighway": "track"
   }
  },
  {
   "type": "Feature",
   "geometry": {
    "type": "LineString",
    "coordinates": [
     [
      101.3450129,
      14.1601787
     ],
     [
      101.3455694,
      14.1608564
     ]
    ]
   },
   "properties": {
    "id": "osm_w615337812_0",
    "type": "road",
    "oneway": false,
    "lit": false,
    "covered": false,
    "source": "osm:way/615337812",
    "osmHighway": "service"
   }
  },
  {
   "type": "Feature",
   "geometry": {
    "type": "LineString",
    "coordinates": [
     [
      101.3640902,
      14.1656518
     ],
     [
      101.3642614,
      14.1655148
     ],
     [
      101.364619,
      14.1652017
     ],
     [
      101.3646608,
      14.165241
     ],
     [
      101.3648359,
      14.1653981
     ],
     [
      101.3651276,
      14.1657033
     ]
    ]
   },
   "properties": {
    "id": "osm_w615337817_0",
    "type": "road",
    "oneway": false,
    "lit": false,
    "covered": false,
    "source": "osm:way/615337817",
    "osmHighway": "service"
   }
  },
  {
   "type": "Feature",
   "geometry": {
    "type": "LineString",
    "coordinates": [
     [
      101.3648359,
      14.1653981
     ],
     [
      101.3650288,
      14.1652051
     ],
     [
      101.365343,
      14.1655103
     ]
    ]
   },
   "properties": {
    "id": "osm_w615337821_0",
    "type": "road",
    "oneway": false,
    "lit": false,
    "covered": false,
    "source": "osm:way/615337821",
    "osmHighway": "service"
   }
  },
  {
   "type": "Feature",
   "geometry": {
    "type": "LineString",
    "coordinates": [
     [
      101.3459464,
      14.1663181
     ],
     [
      101.3459688,
      14.1658379
     ],
     [
      101.3459419,
      14.1654789
     ]
    ]
   },
   "properties": {
    "id": "osm_w615337833_0",
    "type": "road",
    "oneway": false,
    "lit": false,
    "covered": false,
    "source": "osm:way/615337833",
    "osmHighway": "service"
   }
  },
  {
   "type": "Feature",
   "geometry": {
    "type": "LineString",
    "coordinates": [
     [
      101.3544434,
      14.1618797
     ],
     [
      101.3544314,
      14.1617891
     ],
     [
      101.3543932,
      14.1614242
     ],
     [
      101.3543957,
      14.1612459
     ],
     [
      101.3544249,
      14.1611727
     ],
     [
      101.3553236,
      14.1604326
     ],
     [
      101.3555456,
      14.1603271
     ]
    ]
   },
   "properties": {
    "id": "osm_w615337852_0",
    "type": "road",
    "oneway": false,
    "lit": false,
    "covered": false,
    "source": "osm:way/615337852",
    "osmHighway": "track"
   }
  },
  {
   "type": "Feature",
   "geometry": {
    "type": "LineString",
    "coordinates": [
     [
      101.3477508,
      14.1615356
     ],
     [
      101.3477558,
      14.1617882
     ],
     [
      101.3478094,
      14.1619442
     ],
     [
      101.3479945,
      14.1622433
     ],
     [
      101.3484049,
      14.162662
     ]
    ]
   },
   "properties": {
    "id": "osm_w1013961483_0",
    "type": "road",
    "oneway": false,
    "lit": false,
    "covered": false,
    "source": "osm:way/1013961483",
    "osmHighway": "service"
   }
  },
  {
   "type": "Feature",
   "geometry": {
    "type": "LineString",
    "coordinates": [
     [
      101.3430255,
      14.1665888
     ],
     [
      101.3430271,
      14.1667971
     ]
    ]
   },
   "properties": {
    "id": "osm_w1013961486_0",
    "type": "road",
    "oneway": false,
    "lit": false,
    "covered": false,
    "source": "osm:way/1013961486",
    "osmHighway": "service"
   }
  },
  {
   "type": "Feature",
   "geometry": {
    "type": "LineString",
    "coordinates": [
     [
      101.3438424,
      14.167221
     ],
     [
      101.3438746,
      14.1671741
     ],
     [
      101.3439363,
      14.1671559
     ],
     [
      101.3441831,
      14.1671559
     ],
     [
      101.3442448,
      14.1671273
     ],
     [
      101.3442743,
      14.1670623
     ],
     [
      101.3442743,
      14.1669479
     ],
     [
      101.3442838,
      14.1664625
     ]
    ]
   },
   "properties": {
    "id": "osm_w1013961487_0",
    "type": "road",
    "oneway": false,
    "lit": false,
    "covered": false,
    "source": "osm:way/1013961487",
    "osmHighway": "service"
   }
  },
  {
   "type": "Feature",
   "geometry": {
    "type": "LineString",
    "coordinates": [
     [
      101.348361,
      14.1656985
     ],
     [
      101.3483512,
      14.1658504
     ],
     [
      101.3482976,
      14.1659284
     ],
     [
      101.348142,
      14.1660091
     ],
     [
      101.3478282,
      14.1661521
     ],
     [
      101.3477853,
      14.1661781
     ],
     [
      101.3477665,
      14.1662353
     ],
     [
      101.3477772,
      14.1663497
     ],
     [
      101.348016,
      14.1668335
     ],
     [
      101.3481152,
      14.1671065
     ]
    ]
   },
   "properties": {
    "id": "osm_w1013961491_0",
    "type": "road",
    "oneway": false,
    "lit": false,
    "covered": false,
    "source": "osm:way/1013961491",
    "osmHighway": "service"
   }
  },
  {
   "type": "Feature",
   "geometry": {
    "type": "LineString",
    "coordinates": [
     [
      101.3469636,
      14.1619816
     ],
     [
      101.3469634,
      14.1628445
     ],
     [
      101.3469637,
      14.1629749
     ],
     [
      101.3469637,
      14.1630053
     ]
    ]
   },
   "properties": {
    "id": "osm_w1013961492_0",
    "type": "road",
    "oneway": false,
    "lit": false,
    "covered": false,
    "source": "osm:way/1013961492",
    "osmHighway": "service"
   }
  },
  {
   "type": "Feature",
   "geometry": {
    "type": "LineString",
    "coordinates": [
     [
      101.3461148,
      14.1601861
     ],
     [
      101.346237,
      14.1603336
     ]
    ]
   },
   "properties": {
    "id": "osm_w1013961954_0",
    "type": "road",
    "oneway": false,
    "lit": false,
    "covered": false,
    "source": "osm:way/1013961954",
    "osmHighway": "service"
   }
  },
  {
   "type": "Feature",
   "geometry": {
    "type": "LineString",
    "coordinates": [
     [
      101.3456835,
      14.159677
     ],
     [
      101.3456288,
      14.1597258
     ],
     [
      101.3456063,
      14.1597556
     ],
     [
      101.3456138,
      14.1597929
     ],
     [
      101.3457801,
      14.1599877
     ],
     [
      101.3459625,
      14.1602077
     ],
     [
      101.3460097,
      14.1602147
     ],
     [
      101.3460579,
      14.1602121
     ],
     [
      101.3461148,
      14.1601861
     ]
    ]
   },
   "properties": {
    "id": "osm_w1013961955_0",
    "type": "road",
    "oneway": false,
    "lit": false,
    "covered": false,
    "source": "osm:way/1013961955",
    "osmHighway": "service"
   }
  },
  {
   "type": "Feature",
   "geometry": {
    "type": "LineString",
    "coordinates": [
     [
      101.3621163,
      14.1637023
     ],
     [
      101.3620815,
      14.1639441
     ],
     [
      101.362119,
      14.1645527
     ],
     [
      101.3621244,
      14.1646086
     ],
     [
      101.3621458,
      14.1646333
     ],
     [
      101.3622478,
      14.1646905
     ],
     [
      101.3625106,
      14.1647842
     ],
     [
      101.3634145,
      14.165039
     ],
     [
      101.3635379,
      14.1650884
     ],
     [
      101.3636264,
      14.1651326
     ],
     [
      101.3637471,
      14.1652835
     ],
     [
      101.3640902,
      14.1656518
     ],
     [
      101.3641977,
      14.1657672
     ],
     [
      101.3646542,
      14.1661254
     ]
    ]
   },
   "properties": {
    "id": "osm_w1013968039_0",
    "type": "road",
    "oneway": false,
    "lit": false,
    "covered": false,
    "source": "osm:way/1013968039",
    "osmHighway": "service"
   }
  },
  {
   "type": "Feature",
   "geometry": {
    "type": "LineString",
    "coordinates": [
     [
      101.3562262,
      14.1601497
     ],
     [
      101.3566232,
      14.1599963
     ],
     [
      101.3568619,
      14.1599313
     ],
     [
      101.3569504,
      14.1599443
     ],
     [
      101.357047,
      14.1600041
     ],
     [
      101.3570872,
      14.1600509
     ],
     [
      101.3570872,
      14.1601211
     ],
     [
      101.3570443,
      14.1606205
     ],
     [
      101.3570523,
      14.1607245
     ],
     [
      101.3571382,
      14.1608649
     ],
     [
      101.357377,
      14.161237
     ],
     [
      101.3574146,
      14.1612892
     ]
    ]
   },
   "properties": {
    "id": "osm_w1014040697_0",
    "type": "road",
    "oneway": false,
    "lit": false,
    "covered": false,
    "source": "osm:way/1014040697",
    "osmHighway": "service"
   }
  },
  {
   "type": "Feature",
   "geometry": {
    "type": "LineString",
    "coordinates": [
     [
      101.3607812,
      14.1611288
     ],
     [
      101.3608208,
      14.161167
     ],
     [
      101.3608933,
      14.161177
     ],
     [
      101.3609384,
      14.1611298
     ],
     [
      101.3610112,
      14.1610016
     ],
     [
      101.3611139,
      14.1608207
     ],
     [
      101.3611435,
      14.1607686
     ],
     [
      101.3611555,
      14.1607399
     ],
     [
      101.3611574,
      14.160724
     ],
     [
      101.3611582,
      14.1607173
     ],
     [
      101.3611541,
      14.1606979
     ],
     [
      101.361135,
      14.1606828
     ]
    ]
   },
   "properties": {
    "id": "osm_w1014040698_0",
    "type": "road",
    "oneway": false,
    "lit": false,
    "covered": false,
    "source": "osm:way/1014040698",
    "osmHighway": "service"
   }
  },
  {
   "type": "Feature",
   "geometry": {
    "type": "LineString",
    "coordinates": [
     [
      101.3606247,
      14.1613369
     ],
     [
      101.3606476,
      14.1612999
     ],
     [
      101.3607812,
      14.1611288
     ],
     [
      101.3608346,
      14.1610339
     ],
     [
      101.3609215,
      14.1608795
     ],
     [
      101.3610353,
      14.1606771
     ],
     [
      101.3610586,
      14.1606598
     ],
     [
      101.3610841,
      14.1606553
     ],
     [
      101.361135,
      14.1606828
     ]
    ]
   },
   "properties": {
    "id": "osm_w1014040699_0",
    "type": "road",
    "oneway": false,
    "lit": false,
    "covered": false,
    "source": "osm:way/1014040699",
    "osmHighway": "service"
   }
  },
  {
   "type": "Feature",
   "geometry": {
    "type": "LineString",
    "coordinates": [
     [
      101.3654982,
      14.1646597
     ],
     [
      101.3655066,
      14.1648128
     ],
     [
      101.3654932,
      14.1648882
     ],
     [
      101.3654302,
      14.165104
     ],
     [
      101.3653774,
      14.1654783
     ]
    ]
   },
   "properties": {
    "id": "osm_w1015009495_0",
    "type": "road",
    "oneway": false,
    "lit": false,
    "covered": false,
    "source": "osm:way/1015009495",
    "osmHighway": "service"
   }
  },
  {
   "type": "Feature",
   "geometry": {
    "type": "LineString",
    "coordinates": [
     [
      101.3657381,
      14.1645514
     ],
     [
      101.3654982,
      14.1646597
     ],
     [
      101.3652572,
      14.1647685
     ]
    ]
   },
   "properties": {
    "id": "osm_w1015009496_0",
    "type": "road",
    "oneway": false,
    "lit": false,
    "covered": false,
    "source": "osm:way/1015009496",
    "osmHighway": "service"
   }
  },
  {
   "type": "Feature",
   "geometry": {
    "type": "LineString",
    "coordinates": [
     [
      101.3657165,
      14.1644133
     ],
     [
      101.3654946,
      14.1644136
     ],
     [
      101.3653913,
      14.1644058
     ],
     [
      101.365221,
      14.1643602
     ],
     [
      101.3650949,
      14.1643121
     ],
     [
      101.3649474,
      14.16429
     ],
     [
      101.3645531,
      14.1641691
     ],
     [
      101.364187,
      14.164056
     ],
     [
      101.3640274,
      14.1640222
     ],
     [
      101.3639268,
      14.1639988
     ],
     [
      101.3638209,
      14.1639597
     ],
     [
      101.3637337,
      14.1638843
     ],
     [
      101.3633059,
      14.1635124
     ]
    ]
   },
   "properties": {
    "id": "osm_w1015016867_0",
    "type": "road",
    "oneway": false,
    "lit": false,
    "covered": false,
    "source": "osm:way/1015016867",
    "osmHighway": "service"
   }
  },
  {
   "type": "Feature",
   "geometry": {
    "type": "LineString",
    "coordinates": [
     [
      101.3655992,
      14.1636646
     ],
     [
      101.3658889,
      14.1636568
     ],
     [
      101.3659908,
      14.1636776
     ],
     [
      101.3661075,
      14.1636724
     ],
     [
      101.3665634,
      14.1634708
     ],
     [
      101.3666573,
      14.1634604
     ],
     [
      101.3666922,
      14.1634695
     ],
     [
      101.366711,
      14.1635046
     ],
     [
      101.3668771,
      14.1638906
     ]
    ]
   },
   "properties": {
    "id": "osm_w1015016868_0",
    "type": "road",
    "oneway": false,
    "lit": false,
    "covered": false,
    "source": "osm:way/1015016868",
    "osmHighway": "service"
   }
  },
  {
   "type": "Feature",
   "geometry": {
    "type": "LineString",
    "coordinates": [
     [
      101.3668446,
      14.163907
     ],
     [
      101.3668853,
      14.1640027
     ],
     [
      101.3669108,
      14.1640365
     ],
     [
      101.3669886,
      14.164082
     ],
     [
      101.3670704,
      14.1641249
     ]
    ]
   },
   "properties": {
    "id": "osm_w1015016869_0",
    "type": "road",
    "oneway": false,
    "lit": false,
    "covered": false,
    "source": "osm:way/1015016869",
    "osmHighway": "service"
   }
  },
  {
   "type": "Feature",
   "geometry": {
    "type": "LineString",
    "coordinates": [
     [
      101.3660565,
      14.1643485
     ],
     [
      101.3661504,
      14.1642666
     ],
     [
      101.3662389,
      14.164212
     ],
     [
      101.3668446,
      14.163907
     ],
     [
      101.3668771,
      14.1638906
     ],
     [
      101.3669309,
      14.1638635
     ],
     [
      101.3670811,
      14.1637478
     ],
     [
      101.3672152,
      14.1636217
     ],
     [
      101.3672541,
      14.1635787
     ],
     [
      101.367474,
      14.1632823
     ]
    ]
   },
   "properties": {
    "id": "osm_w1015016871_0",
    "type": "road",
    "oneway": false,
    "lit": false,
    "covered": false,
    "source": "osm:way/1015016871",
    "osmHighway": "residential"
   }
  },
  {
   "type": "Feature",
   "geometry": {
    "type": "LineString",
    "coordinates": [
     [
      101.3657003,
      14.16431
     ],
     [
      101.3657869,
      14.1642757
     ],
     [
      101.3658191,
      14.1642705
     ],
     [
      101.3660565,
      14.1643485
     ],
     [
      101.3661423,
      14.164381
     ],
     [
      101.3672554,
      14.1647581
     ],
     [
      101.3673802,
      14.1648141
     ],
     [
      101.3674808,
      14.164909
     ],
     [
      101.3678968,
      14.165359
     ]
    ]
   },
   "properties": {
    "id": "osm_w1015016873_0",
    "type": "road",
    "oneway": false,
    "lit": false,
    "covered": false,
    "source": "osm:way/1015016873",
    "osmHighway": "residential"
   }
  },
  {
   "type": "Feature",
   "geometry": {
    "type": "LineString",
    "coordinates": [
     [
      101.3641374,
      14.160887
     ],
     [
      101.3642701,
      14.1609377
     ],
     [
      101.3643265,
      14.1609781
     ],
     [
      101.3643855,
      14.1610197
     ],
     [
      101.3644163,
      14.1610288
     ],
     [
      101.3644887,
      14.1610314
     ],
     [
      101.3651416,
      14.1609261
     ]
    ]
   },
   "properties": {
    "id": "osm_w1015028375_0",
    "type": "road",
    "oneway": false,
    "lit": false,
    "covered": false,
    "source": "osm:way/1015028375",
    "osmHighway": "service"
   }
  },
  {
   "type": "Feature",
   "geometry": {
    "type": "LineString",
    "coordinates": [
     [
      101.3664671,
      14.1614752
     ],
     [
      101.3664991,
      14.1617089
     ]
    ]
   },
   "properties": {
    "id": "osm_w1015028378_0",
    "type": "road",
    "oneway": false,
    "lit": false,
    "covered": false,
    "source": "osm:way/1015028378",
    "osmHighway": "service"
   }
  },
  {
   "type": "Feature",
   "geometry": {
    "type": "LineString",
    "coordinates": [
     [
      101.3628669,
      14.1622239
     ],
     [
      101.3628827,
      14.1622723
     ],
     [
      101.3628846,
      14.1622865
     ],
     [
      101.3628693,
      14.1622952
     ],
     [
      101.3628546,
      14.1623039
     ],
     [
      101.3628335,
      14.1623199
     ],
     [
      101.3628259,
      14.1623261
     ],
     [
      101.3628182,
      14.1623404
     ],
     [
      101.3628131,
      14.1623558
     ],
     [
      101.3628118,
      14.1623731
     ],
     [
      101.362815,
      14.1623886
     ],
     [
      101.3628195,
      14.1624047
     ],
     [
      101.3628342,
      14.1624208
     ],
     [
      101.3628476,
      14.1624356
     ],
     [
      101.3628712,
      14.1624474
     ],
     [
      101.3628967,
      14.1624498
     ],
     [
      101.3629299,
      14.1624455
     ],
     [
      101.362956,
      14.1624276
     ],
     [
      101.3629701,
      14.1624078
     ],
     [
      101.3629796,
      14.1623849
     ],
     [
      101.3629783,
      14.162362
     ],
     [
      101.3629713,
      14.1623416
     ],
     [
      101.3629592,
      14.1623237
     ],
     [
      101.3629541,
      14.1623162
     ],
     [
      101.3629286,
      14.1622952
     ],
     [
      101.3628846,
      14.1622865
     ]
    ]
   },
   "properties": {
    "id": "osm_w1156848821_0",
    "type": "footway",
    "oneway": false,
    "lit": false,
    "covered": false,
    "source": "osm:way/1156848821",
    "osmHighway": "pedestrian"
   }
  },
  {
   "type": "Feature",
   "geometry": {
    "type": "LineString",
    "coordinates": [
     [
      101.3629592,
      14.1623237
     ],
     [
      101.3629592,
      14.1623237
     ],
     [
      101.3630212,
      14.1623121
     ],
     [
      101.3630716,
      14.1623143
     ],
     [
      101.3631114,
      14.1623264
     ],
     [
      101.3631511,
      14.1623441
     ],
     [
      101.3632072,
      14.1623808
     ],
     [
      101.3632398,
      14.1624125
     ],
     [
      101.3632725,
      14.1624573
     ],
     [
      101.3632998,
      14.1625211
     ],
     [
      101.3633195,
      14.1625785
     ],
     [
      101.3633393,
      14.1626212
     ],
     [
      101.3633544,
      14.1626565
     ],
     [
      101.3633833,
      14.1627006
     ],
     [
      101.3634136,
      14.1627433
     ],
     [
      101.3634606,
      14.1627889
     ],
     [
      101.3635183,
      14.162833
     ],
     [
      101.363582,
      14.1628522
     ],
     [
      101.3636442,
      14.1628625
     ],
     [
      101.3637019,
      14.1628507
     ],
     [
      101.3637474,
      14.1628301
     ],
     [
      101.3638096,
      14.1627933
     ],
     [
      101.3638491,
      14.1627712
     ],
     [
      101.3638991,
      14.1627521
     ],
     [
      101.3639538,
      14.1627433
     ],
     [
      101.3639932,
      14.1627433
     ],
     [
      101.3640288,
      14.1627439
     ],
     [
      101.3640766,
      14.162752
     ],
     [
      101.3641175,
      14.1627586
     ],
     [
      101.364118,
      14.1627587
     ],
     [
      101.3641623,
      14.1627652
     ],
     [
      101.3642032,
      14.1627821
     ],
     [
      101.3642609,
      14.1628211
     ],
     [
      101.3642988,
      14.1628461
     ],
     [
      101.3643413,
      14.1628844
     ],
     [
      101.3643777,
      14.1629248
     ],
     [
      101.364421,
      14.16298
     ],
     [
      101.3644468,
      14.1629999
     ],
     [
      101.3644984,
      14.1630278
     ],
     [
      101.3645621,
      14.1630447
     ],
     [
      101.3646,
      14.1630477
     ],
     [
      101.3646349,
      14.1630278
     ],
     [
      101.3646691,
      14.1630087
     ],
     [
      101.3646895,
      14.1629955
     ],
     [
      101.3647062,
      14.1630124
     ],
     [
      101.3647206,
      14.1630241
     ],
     [
      101.3647381,
      14.1630308
     ],
     [
      101.3647624,
      14.1630315
     ],
     [
      101.3647648,
      14.1630313
     ],
     [
      101.3647791,
      14.16303
     ],
     [
      101.3648033,
      14.1630168
     ],
     [
      101.3648314,
      14.1629977
     ],
     [
      101.3648435,
      14.1629785
     ],
     [
      101.3648534,
      14.1629476
     ],
     [
      101.3648473,
      14.1629248
     ],
     [
      101.3648291,
      14.1628947
     ],
     [
      101.3648071,
      14.1628733
     ],
     [
      101.3647889,
      14.1628667
     ],
     [
      101.3647555,
      14.162866
     ],
     [
      101.364726,
      14.1628741
     ],
     [
      101.364704,
      14.162891
     ],
     [
      101.3646895,
      14.1629131
     ],
     [
      101.364682,
      14.1629337
     ],
     [
      101.3646804,
      14.1629535
     ],
     [
      101.3646804,
      14.1629749
     ],
     [
      101.3646895,
      14.1629955
     ]
    ]
   },
   "properties": {
    "id": "osm_w1156848822_0",
    "type": "footway",
    "oneway": false,
    "lit": false,
    "covered": false,
    "source": "osm:way/1156848822",
    "osmHighway": "pedestrian"
   }
  },
  {
   "type": "Feature",
   "geometry": {
    "type": "LineString",
    "coordinates": [
     [
      101.3647624,
      14.1630315
     ],
     [
      101.3647624,
      14.1630315
     ],
     [
      101.364774,
      14.1631281
     ]
    ]
   },
   "properties": {
    "id": "osm_w1156848823_0",
    "type": "footway",
    "oneway": false,
    "lit": false,
    "covered": false,
    "source": "osm:way/1156848823",
    "osmHighway": "pedestrian"
   }
  },
  {
   "type": "Feature",
   "geometry": {
    "type": "LineString",
    "coordinates": [
     [
      101.3639436,
      14.1633329
     ],
     [
      101.3639684,
      14.1633029
     ],
     [
      101.3640359,
      14.1632054
     ]
    ]
   },
   "properties": {
    "id": "osm_w1156848825_0",
    "type": "footway",
    "oneway": false,
    "lit": false,
    "covered": false,
    "source": "osm:way/1156848825",
    "osmHighway": "footway"
   }
  },
  {
   "type": "Feature",
   "geometry": {
    "type": "LineString",
    "coordinates": [
     [
      101.364111,
      14.1628036
     ],
     [
      101.3641786,
      14.1628395
     ],
     [
      101.3642411,
      14.1628779
     ],
     [
      101.364296,
      14.1629261
     ],
     [
      101.3643253,
      14.1629781
     ],
     [
      101.3643419,
      14.1630251
     ],
     [
      101.3643419,
      14.1630669
     ],
     [
      101.3643356,
      14.1631327
     ],
     [
      101.3643215,
      14.1631735
     ],
     [
      101.3642922,
      14.1632082
     ],
     [
      101.3642475,
      14.1632329
     ],
     [
      101.364171,
      14.1632477
     ],
     [
      101.3640893,
      14.1632292
     ],
     [
      101.3640359,
      14.1632054
     ]
    ]
   },
   "properties": {
    "id": "osm_w1156848826_0",
    "type": "footway",
    "oneway": false,
    "lit": false,
    "covered": false,
    "source": "osm:way/1156848826",
    "osmHighway": "pedestrian"
   }
  },
  {
   "type": "Feature",
   "geometry": {
    "type": "LineString",
    "coordinates": [
     [
      101.3457193,
      14.1642808
     ],
     [
      101.3469582,
      14.1642895
     ],
     [
      101.3469582,
      14.1635863
     ],
     [
      101.3469638,
      14.1630418
     ],
     [
      101.3469637,
      14.1630053
     ]
    ]
   },
   "properties": {
    "id": "osm_w1156848827_0",
    "type": "footway",
    "oneway": false,
    "lit": false,
    "covered": false,
    "source": "osm:way/1156848827",
    "osmHighway": "footway"
   }
  },
  {
   "type": "Feature",
   "geometry": {
    "type": "LineString",
    "coordinates": [
     [
      101.3450026,
      14.1597248
     ],
     [
      101.345079,
      14.1598196
     ]
    ]
   },
   "properties": {
    "id": "osm_w1156848829_0",
    "type": "footway",
    "oneway": false,
    "lit": false,
    "covered": false,
    "source": "osm:way/1156848829",
    "osmHighway": "footway"
   }
  },
  {
   "type": "Feature",
   "geometry": {
    "type": "LineString",
    "coordinates": [
     [
      101.3443122,
      14.1648058
     ],
     [
      101.3443128,
      14.1646963
     ],
     [
      101.3443137,
      14.164574
     ]
    ]
   },
   "properties": {
    "id": "osm_w1156848837_0",
    "type": "footway",
    "oneway": false,
    "lit": false,
    "covered": false,
    "source": "osm:way/1156848837",
    "osmHighway": "footway"
   }
  },
  {
   "type": "Feature",
   "geometry": {
    "type": "LineString",
    "coordinates": [
     [
      101.3451821,
      14.1654596
     ],
     [
      101.3450539,
      14.1654541
     ]
    ]
   },
   "properties": {
    "id": "osm_w1156848838_0",
    "type": "footway",
    "oneway": false,
    "lit": false,
    "covered": false,
    "source": "osm:way/1156848838",
    "osmHighway": "footway"
   }
  },
  {
   "type": "Feature",
   "geometry": {
    "type": "LineString",
    "coordinates": [
     [
      101.3453252,
      14.164771
     ],
     [
      101.3453271,
      14.1647193
     ],
     [
      101.3453396,
      14.1643868
     ],
     [
      101.3453433,
      14.1642892
     ]
    ]
   },
   "properties": {
    "id": "osm_w1156848839_0",
    "type": "footway",
    "oneway": false,
    "lit": false,
    "covered": false,
    "source": "osm:way/1156848839",
    "osmHighway": "footway"
   }
  },
  {
   "type": "Feature",
   "geometry": {
    "type": "LineString",
    "coordinates": [
     [
      101.3477195,
      14.1602217
     ],
     [
      101.3473315,
      14.1605145
     ]
    ]
   },
   "properties": {
    "id": "osm_w1157704176_0",
    "type": "footway",
    "oneway": false,
    "lit": false,
    "covered": false,
    "source": "osm:way/1157704176",
    "osmHighway": "footway"
   }
  },
  {
   "type": "Feature",
   "geometry": {
    "type": "LineString",
    "coordinates": [
     [
      101.3457245,
      14.1637567
     ],
     [
      101.3453773,
      14.1637491
     ],
     [
      101.3453018,
      14.1638115
     ],
     [
      101.3453018,
      14.1638115
     ],
     [
      101.3452804,
      14.1638097
     ],
     [
      101.3452163,
      14.1638045
     ]
    ]
   },
   "properties": {
    "id": "osm_w1157704177_0",
    "type": "footway",
    "oneway": false,
    "lit": false,
    "covered": false,
    "source": "osm:way/1157704177",
    "osmHighway": "footway"
   }
  },
  {
   "type": "Feature",
   "geometry": {
    "type": "LineString",
    "coordinates": [
     [
      101.3470197,
      14.1596866
     ],
     [
      101.34717,
      14.1595781
     ]
    ]
   },
   "properties": {
    "id": "osm_w1157731135_0",
    "type": "footway",
    "oneway": false,
    "lit": false,
    "covered": false,
    "source": "osm:way/1157731135",
    "osmHighway": "footway"
   }
  },
  {
   "type": "Feature",
   "geometry": {
    "type": "LineString",
    "coordinates": [
     [
      101.3454106,
      14.1600861
     ],
     [
      101.345512,
      14.1597746
     ],
     [
      101.345532,
      14.1597636
     ],
     [
      101.3456063,
      14.1597556
     ]
    ]
   },
   "properties": {
    "id": "osm_w1157742921_0",
    "type": "footway",
    "oneway": false,
    "lit": false,
    "covered": false,
    "source": "osm:way/1157742921",
    "osmHighway": "path"
   }
  },
  {
   "type": "Feature",
   "geometry": {
    "type": "LineString",
    "coordinates": [
     [
      101.3450653,
      14.1647719
     ],
     [
      101.3450599,
      14.1650967
     ],
     [
      101.3450567,
      14.1652874
     ],
     [
      101.3450539,
      14.1654541
     ]
    ]
   },
   "properties": {
    "id": "osm_w1157749715_0",
    "type": "footway",
    "oneway": false,
    "lit": false,
    "covered": false,
    "source": "osm:way/1157749715",
    "osmHighway": "footway"
   }
  },
  {
   "type": "Feature",
   "geometry": {
    "type": "LineString",
    "coordinates": [
     [
      101.3449622,
      14.1656168
     ],
     [
      101.3447519,
      14.1656161
     ]
    ]
   },
   "properties": {
    "id": "osm_w1157749716_0",
    "type": "road",
    "oneway": false,
    "lit": false,
    "covered": false,
    "source": "osm:way/1157749716",
    "osmHighway": "service"
   }
  },
  {
   "type": "Feature",
   "geometry": {
    "type": "LineString",
    "coordinates": [
     [
      101.343676,
      14.1651679
     ],
     [
      101.3433169,
      14.1651571
     ],
     [
      101.3432387,
      14.165157
     ],
     [
      101.3432389,
      14.1651022
     ]
    ]
   },
   "properties": {
    "id": "osm_w1157749717_0",
    "type": "footway",
    "oneway": false,
    "lit": false,
    "covered": false,
    "source": "osm:way/1157749717",
    "osmHighway": "footway"
   }
  },
  {
   "type": "Feature",
   "geometry": {
    "type": "LineString",
    "coordinates": [
     [
      101.344967,
      14.1654513
     ],
     [
      101.3450539,
      14.1654541
     ]
    ]
   },
   "properties": {
    "id": "osm_w1157946206_0",
    "type": "footway",
    "oneway": false,
    "lit": false,
    "covered": false,
    "source": "osm:way/1157946206",
    "osmHighway": "footway"
   }
  },
  {
   "type": "Feature",
   "geometry": {
    "type": "LineString",
    "coordinates": [
     [
      101.351026,
      14.1630548
     ],
     [
      101.352755,
      14.1634937
     ],
     [
      101.3530002,
      14.1635188
     ],
     [
      101.3533663,
      14.1634887
     ],
     [
      101.3536485,
      14.163432
     ],
     [
      101.354032,
      14.1633039
     ],
     [
      101.3566672,
      14.1618127
     ],
     [
      101.3584925,
      14.1607797
     ],
     [
      101.3586386,
      14.160711
     ],
     [
      101.3588282,
      14.1606625
     ],
     [
      101.3591393,
      14.1606498
     ],
     [
      101.3593468,
      14.1606792
     ],
     [
      101.3594999,
      14.1607408
     ],
     [
      101.3612381,
      14.1617923
     ],
     [
      101.3641293,
      14.1635527
     ],
     [
      101.3641991,
      14.1635848
     ],
     [
      101.3643047,
      14.1636334
     ],
     [
      101.3644756,
      14.1637002
     ],
     [
      101.3644951,
      14.1637078
     ],
     [
      101.3646471,
      14.1637556
     ],
     [
      101.3647976,
      14.1637981
     ],
     [
      101.3649509,
      14.1638288
     ],
     [
      101.3650887,
      14.1638224
     ],
     [
      101.3651671,
      14.1638188
     ],
     [
      101.3651965,
      14.1638174
     ],
     [
      101.3656131,
      14.1637529
     ]
    ]
   },
   "properties": {
    "id": "osm_w1157959793_0",
    "type": "road",
    "oneway": true,
    "lit": false,
    "covered": false,
    "source": "osm:way/1157959793",
    "osmHighway": "unclassified"
   }
  },
  {
   "type": "Feature",
   "geometry": {
    "type": "LineString",
    "coordinates": [
     [
      101.351026,
      14.1630548
     ],
     [
      101.3510144,
      14.1630974
     ],
     [
      101.3508723,
      14.1636748
     ],
     [
      101.3507277,
      14.1639729
     ],
     [
      101.3499123,
      14.1649455
     ],
     [
      101.3496119,
      14.1651796
     ],
     [
      101.3492791,
      14.1653444
     ],
     [
      101.348361,
      14.1656985
     ],
     [
      101.3471711,
      14.1661574
     ],
     [
      101.3470525,
      14.1661857
     ],
     [
      101.346801,
      14.1662458
     ],
     [
      101.3459464,
      14.1663181
     ],
     [
      101.3449395,
      14.1663967
     ]
    ]
   },
   "properties": {
    "id": "osm_w1157959794_0",
    "type": "road",
    "oneway": false,
    "lit": false,
    "covered": false,
    "source": "osm:way/1157959794",
    "osmHighway": "service"
   }
  },
  {
   "type": "Feature",
   "geometry": {
    "type": "LineString",
    "coordinates": [
     [
      101.3510415,
      14.1629907
     ],
     [
      101.3506421,
      14.1628395
     ],
     [
      101.3503615,
      14.162682
     ],
     [
      101.3500826,
      14.1624573
     ],
     [
      101.3489222,
      14.1610741
     ]
    ]
   },
   "properties": {
    "id": "osm_w1157959795_0",
    "type": "road",
    "oneway": true,
    "lit": false,
    "covered": false,
    "source": "osm:way/1157959795",
    "osmHighway": "unclassified"
   }
  },
  {
   "type": "Feature",
   "geometry": {
    "type": "LineString",
    "coordinates": [
     [
      101.365161,
      14.1638677
     ],
     [
      101.3650002,
      14.1638668
     ],
     [
      101.3648497,
      14.163851
     ],
     [
      101.3646051,
      14.1637802
     ],
     [
      101.3644742,
      14.1637386
     ],
     [
      101.3643626,
      14.1637823
     ],
     [
      101.3641931,
      14.1637199
     ],
     [
      101.3641609,
      14.1636117
     ],
     [
      101.3637489,
      14.1633745
     ],
     [
      101.3596357,
      14.1608757
     ],
     [
      101.3594751,
      14.1607812
     ],
     [
      101.3593145,
      14.1607182
     ],
     [
      101.3591286,
      14.1606885
     ],
     [
      101.3588676,
      14.1607035
     ],
     [
      101.3586429,
      14.1607551
     ],
     [
      101.3584417,
      14.1608505
     ],
     [
      101.3542139,
      14.1632657
     ],
     [
      101.3540895,
      14.1633363
     ],
     [
      101.3539165,
      14.1634025
     ],
     [
      101.3536616,
      14.1634761
     ],
     [
      101.3534265,
      14.1635173
     ],
     [
      101.3531458,
      14.163557
     ],
     [
      101.3528378,
      14.1635555
     ],
     [
      101.3525738,
      14.1635011
     ],
     [
      101.3510144,
      14.1630974
     ],
     [
      101.3506042,
      14.1629547
     ],
     [
      101.3503746,
      14.1628347
     ],
     [
      101.3501628,
      14.1626912
     ],
     [
      101.350002,
      14.162539
     ],
     [
      101.3488049,
      14.1611503
     ]
    ]
   },
   "properties": {
    "id": "osm_w1157959796_0",
    "type": "footway",
    "oneway": false,
    "lit": false,
    "covered": false,
    "source": "osm:way/1157959796",
    "osmHighway": "footway"
   }
  },
  {
   "type": "Feature",
   "geometry": {
    "type": "LineString",
    "coordinates": [
     [
      101.344673,
      14.1653516
     ],
     [
      101.3446816,
      14.1648179
     ]
    ]
   },
   "properties": {
    "id": "osm_w1311499034_0",
    "type": "road",
    "oneway": false,
    "lit": false,
    "covered": false,
    "source": "osm:way/1311499034",
    "osmHighway": "service"
   }
  },
  {
   "type": "Feature",
   "geometry": {
    "type": "LineString",
    "coordinates": [
     [
      101.3444955,
      14.1653481
     ],
     [
      101.3445128,
      14.1648121
     ]
    ]
   },
   "properties": {
    "id": "osm_w1311499035_0",
    "type": "road",
    "oneway": false,
    "lit": false,
    "covered": false,
    "source": "osm:way/1311499035",
    "osmHighway": "service"
   }
  },
  {
   "type": "Feature",
   "geometry": {
    "type": "LineString",
    "coordinates": [
     [
      101.3443235,
      14.1653448
     ],
     [
      101.3443362,
      14.164806
     ]
    ]
   },
   "properties": {
    "id": "osm_w1311499036_0",
    "type": "road",
    "oneway": false,
    "lit": false,
    "covered": false,
    "source": "osm:way/1311499036",
    "osmHighway": "service"
   }
  },
  {
   "type": "Feature",
   "geometry": {
    "type": "LineString",
    "coordinates": [
     [
      101.3469637,
      14.1629749
     ],
     [
      101.3473449,
      14.1629801
     ]
    ]
   },
   "properties": {
    "id": "osm_w1311499037_0",
    "type": "road",
    "oneway": false,
    "lit": false,
    "covered": false,
    "source": "osm:way/1311499037",
    "osmHighway": "service"
   }
  },
  {
   "type": "Feature",
   "geometry": {
    "type": "LineString",
    "coordinates": [
     [
      101.3655839,
      14.163566
     ],
     [
      101.3655992,
      14.1636646
     ]
    ]
   },
   "properties": {
    "id": "osm_w1313545722_0",
    "type": "road",
    "oneway": false,
    "lit": false,
    "covered": false,
    "source": "osm:way/1313545722",
    "osmHighway": "secondary"
   }
  },
  {
   "type": "Feature",
   "geometry": {
    "type": "LineString",
    "coordinates": [
     [
      101.3655992,
      14.1636646
     ],
     [
      101.3656131,
      14.1637529
     ],
     [
      101.3656214,
      14.1638059
     ],
     [
      101.3657003,
      14.16431
     ],
     [
      101.3657165,
      14.1644133
     ],
     [
      101.3657381,
      14.1645514
     ],
     [
      101.3657438,
      14.1645879
     ],
     [
      101.365781,
      14.1648257
     ],
     [
      101.3658697,
      14.1653647
     ],
     [
      101.3659563,
      14.1658907
     ],
     [
      101.366077,
      14.1666237
     ]
    ]
   },
   "properties": {
    "id": "osm_w1313545723_0",
    "type": "road",
    "oneway": false,
    "lit": false,
    "covered": false,
    "source": "osm:way/1313545723",
    "osmHighway": "secondary"
   }
  },
  {
   "type": "Feature",
   "geometry": {
    "type": "LineString",
    "coordinates": [
     [
      101.3458004,
      14.1578828
     ],
     [
      101.3460496,
      14.1576731
     ],
     [
      101.3463137,
      14.1574509
     ]
    ]
   },
   "properties": {
    "id": "osm_w1314003839_0",
    "type": "footway",
    "oneway": false,
    "lit": false,
    "covered": false,
    "source": "osm:way/1314003839",
    "osmHighway": "footway"
   }
  },
  {
   "type": "Feature",
   "geometry": {
    "type": "LineString",
    "coordinates": [
     [
      101.3566262,
      14.1617404
     ],
     [
      101.3566672,
      14.1618127
     ]
    ]
   },
   "properties": {
    "id": "osm_w1315342881_0",
    "type": "road",
    "oneway": false,
    "lit": false,
    "covered": false,
    "source": "osm:way/1315342881",
    "osmHighway": "unclassified"
   }
  },
  {
   "type": "Feature",
   "geometry": {
    "type": "LineString",
    "coordinates": [
     [
      101.3638982,
      14.1633054
     ],
     [
      101.3638879,
      14.16323
     ],
     [
      101.3636671,
      14.163093
     ],
     [
      101.3635873,
      14.163117
     ]
    ]
   },
   "properties": {
    "id": "osm_w1315342882_0",
    "type": "road",
    "oneway": false,
    "lit": false,
    "covered": false,
    "source": "osm:way/1315342882",
    "osmHighway": "service"
   }
  },
  {
   "type": "Feature",
   "geometry": {
    "type": "LineString",
    "coordinates": [
     [
      101.3641991,
      14.1635848
     ],
     [
      101.3642209,
      14.1636802
     ],
     [
      101.364368,
      14.1637334
     ],
     [
      101.3644756,
      14.1637002
     ]
    ]
   },
   "properties": {
    "id": "osm_w1315342883_0",
    "type": "road",
    "oneway": false,
    "lit": false,
    "covered": false,
    "source": "osm:way/1315342883",
    "osmHighway": "service"
   }
  },
  {
   "type": "Feature",
   "geometry": {
    "type": "LineString",
    "coordinates": [
     [
      101.3463236,
      14.1585832
     ],
     [
      101.3464046,
      14.1585751
     ],
     [
      101.3465008,
      14.1585475
     ],
     [
      101.3465428,
      14.1585094
     ],
     [
      101.3466004,
      14.1584575
     ],
     [
      101.3466566,
      14.1584122
     ],
     [
      101.3467027,
      14.1583813
     ],
     [
      101.3467447,
      14.1583504
     ],
     [
      101.3467881,
      14.1583149
     ],
     [
      101.3468545,
      14.1582926
     ],
     [
      101.3469168,
      14.1582755
     ],
     [
      101.3469663,
      14.1582716
     ],
     [
      101.3470032,
      14.1582664
     ],
     [
      101.3470883,
      14.1582499
     ],
     [
      101.3471608,
      14.1582381
     ],
     [
      101.3472089,
      14.1582216
     ],
     [
      101.3472766,
      14.1581921
     ],
     [
      101.3473396,
      14.1581678
     ],
     [
      101.3473857,
      14.1581461
     ],
     [
      101.347423,
      14.1581218
     ],
     [
      101.347465,
      14.1580994
     ],
     [
      101.3474989,
      14.1580712
     ],
     [
      101.3475721,
      14.1580186
     ],
     [
      101.347631,
      14.1579726
     ],
     [
      101.3476893,
      14.1579241
     ]
    ]
   },
   "properties": {
    "id": "osm_w1315342885_0",
    "type": "footway",
    "oneway": false,
    "lit": false,
    "covered": false,
    "source": "osm:way/1315342885",
    "osmHighway": "path"
   }
  },
  {
   "type": "Feature",
   "geometry": {
    "type": "LineString",
    "coordinates": [
     [
      101.3473425,
      14.1586846
     ],
     [
      101.3473614,
      14.1586204
     ],
     [
      101.3473909,
      14.1585736
     ],
     [
      101.3474249,
      14.1585224
     ],
     [
      101.3474445,
      14.1584635
     ],
     [
      101.3474553,
      14.1584063
     ],
     [
      101.3474839,
      14.1583569
     ],
     [
      101.3475196,
      14.1582936
     ],
     [
      101.3475321,
      14.158226
     ],
     [
      101.3475491,
      14.1581858
     ],
     [
      101.3475581,
      14.1581644
     ],
     [
      101.3475867,
      14.1581185
     ],
     [
      101.3476296,
      14.1580257
     ],
     [
      101.3476893,
      14.1579241
     ]
    ]
   },
   "properties": {
    "id": "osm_w1315342886_0",
    "type": "footway",
    "oneway": false,
    "lit": false,
    "covered": false,
    "source": "osm:way/1315342886",
    "osmHighway": "path"
   }
  },
  {
   "type": "Feature",
   "geometry": {
    "type": "LineString",
    "coordinates": [
     [
      101.34717,
      14.1595781
     ],
     [
      101.3472109,
      14.1595515
     ],
     [
      101.347256,
      14.159516
     ],
     [
      101.3473074,
      14.1594708
     ],
     [
      101.3473588,
      14.1594308
     ],
     [
      101.347393,
      14.15939
     ],
     [
      101.3474203,
      14.1593621
     ],
     [
      101.3474607,
      14.15931
     ],
     [
      101.3475082,
      14.1592527
     ],
     [
      101.3475324,
      14.1591991
     ],
     [
      101.347565,
      14.1591236
     ],
     [
      101.3475853,
      14.1590466
     ],
     [
      101.3475709,
      14.1589663
     ]
    ]
   },
   "properties": {
    "id": "osm_w1315342887_0",
    "type": "footway",
    "oneway": false,
    "lit": false,
    "covered": false,
    "source": "osm:way/1315342887",
    "osmHighway": "path"
   }
  },
  {
   "type": "Feature",
   "geometry": {
    "type": "LineString",
    "coordinates": [
     [
      101.3456045,
      14.1583731
     ],
     [
      101.3457309,
      14.1582775
     ],
     [
      101.3457328,
      14.1582761
     ],
     [
      101.3458124,
      14.1582159
     ],
     [
      101.345813,
      14.1582154
     ],
     [
      101.3459363,
      14.1581222
     ]
    ]
   },
   "properties": {
    "id": "osm_w1315342890_0",
    "type": "footway",
    "oneway": false,
    "lit": false,
    "covered": false,
    "source": "osm:way/1315342890",
    "osmHighway": "path"
   }
  },
  {
   "type": "Feature",
   "geometry": {
    "type": "LineString",
    "coordinates": [
     [
      101.3457917,
      14.1583493
     ],
     [
      101.3457309,
      14.1582775
     ]
    ]
   },
   "properties": {
    "id": "osm_w1315342891_0",
    "type": "road",
    "oneway": false,
    "lit": false,
    "covered": false,
    "source": "osm:way/1315342891",
    "osmHighway": "service"
   }
  },
  {
   "type": "Feature",
   "geometry": {
    "type": "LineString",
    "coordinates": [
     [
      101.345872,
      14.1582887
     ],
     [
      101.3458124,
      14.1582159
     ]
    ]
   },
   "properties": {
    "id": "osm_w1315342892_0",
    "type": "road",
    "oneway": true,
    "lit": false,
    "covered": false,
    "source": "osm:way/1315342892",
    "osmHighway": "service"
   }
  },
  {
   "type": "Feature",
   "geometry": {
    "type": "LineString",
    "coordinates": [
     [
      101.3444454,
      14.1601492
     ],
     [
      101.3444528,
      14.1601091
     ],
     [
      101.3449432,
      14.1597362
     ],
     [
      101.3449877,
      14.1597366
     ]
    ]
   },
   "properties": {
    "id": "osm_w1315367683_0",
    "type": "road",
    "oneway": false,
    "lit": false,
    "covered": false,
    "source": "osm:way/1315367683",
    "osmHighway": "service"
   }
  },
  {
   "type": "Feature",
   "geometry": {
    "type": "LineString",
    "coordinates": [
     [
      101.3467666,
      14.1599191
     ],
     [
      101.3466841,
      14.1598158
     ],
     [
      101.3465912,
      14.1596994
     ],
     [
      101.3468619,
      14.1594939
     ]
    ]
   },
   "properties": {
    "id": "osm_w1315367684_0",
    "type": "road",
    "oneway": false,
    "lit": false,
    "covered": false,
    "source": "osm:way/1315367684",
    "osmHighway": "service"
   }
  },
  {
   "type": "Feature",
   "geometry": {
    "type": "LineString",
    "coordinates": [
     [
      101.3466841,
      14.1598158
     ],
     [
      101.3469564,
      14.1596094
     ]
    ]
   },
   "properties": {
    "id": "osm_w1315367685_0",
    "type": "road",
    "oneway": false,
    "lit": false,
    "covered": false,
    "source": "osm:way/1315367685",
    "osmHighway": "service"
   }
  },
  {
   "type": "Feature",
   "geometry": {
    "type": "LineString",
    "coordinates": [
     [
      101.3457079,
      14.1594172
     ],
     [
      101.3456507,
      14.1593431
     ]
    ]
   },
   "properties": {
    "id": "osm_w1315367686_0",
    "type": "footway",
    "oneway": false,
    "lit": false,
    "covered": false,
    "source": "osm:way/1315367686",
    "osmHighway": "footway"
   }
  },
  {
   "type": "Feature",
   "geometry": {
    "type": "LineString",
    "coordinates": [
     [
      101.3487618,
      14.1579413
     ],
     [
      101.3484951,
      14.1576204
     ]
    ]
   },
   "properties": {
    "id": "osm_w1315367687_0",
    "type": "road",
    "oneway": false,
    "lit": false,
    "covered": false,
    "source": "osm:way/1315367687",
    "osmHighway": "service"
   }
  },
  {
   "type": "Feature",
   "geometry": {
    "type": "LineString",
    "coordinates": [
     [
      101.3493167,
      14.1575119
     ],
     [
      101.3492487,
      14.1574323
     ]
    ]
   },
   "properties": {
    "id": "osm_w1315367688_0",
    "type": "footway",
    "oneway": false,
    "lit": false,
    "covered": false,
    "source": "osm:way/1315367688",
    "osmHighway": "footway"
   }
  },
  {
   "type": "Feature",
   "geometry": {
    "type": "LineString",
    "coordinates": [
     [
      101.3429222,
      14.1565302
     ],
     [
      101.3430161,
      14.1566044
     ],
     [
      101.3432731,
      14.156883
     ],
     [
      101.3436271,
      14.1572147
     ],
     [
      101.3440117,
      14.1575533
     ],
     [
      101.3441874,
      14.1577386
     ],
     [
      101.344299,
      14.1578753
     ]
    ]
   },
   "properties": {
    "id": "osm_w1315367691_0",
    "type": "footway",
    "oneway": false,
    "lit": false,
    "covered": false,
    "source": "osm:way/1315367691",
    "osmHighway": "footway"
   }
  },
  {
   "type": "Feature",
   "geometry": {
    "type": "LineString",
    "coordinates": [
     [
      101.343672,
      14.1653321
     ],
     [
      101.3435497,
      14.1653328
     ]
    ]
   },
   "properties": {
    "id": "osm_w1315367696_0",
    "type": "road",
    "oneway": false,
    "lit": false,
    "covered": false,
    "source": "osm:way/1315367696",
    "osmHighway": "service"
   }
  },
  {
   "type": "Feature",
   "geometry": {
    "type": "LineString",
    "coordinates": [
     [
      101.343313,
      14.1652918
     ],
     [
      101.3433169,
      14.1651571
     ],
     [
      101.3433169,
      14.1651571
     ]
    ]
   },
   "properties": {
    "id": "osm_w1315367698_0",
    "type": "footway",
    "oneway": false,
    "lit": false,
    "covered": false,
    "source": "osm:way/1315367698",
    "osmHighway": "footway"
   }
  },
  {
   "type": "Feature",
   "geometry": {
    "type": "LineString",
    "coordinates": [
     [
      101.3452804,
      14.1638097
     ],
     [
      101.3453383,
      14.1638708
     ]
    ]
   },
   "properties": {
    "id": "osm_w1315367699_0",
    "type": "footway",
    "oneway": false,
    "lit": false,
    "covered": false,
    "source": "osm:way/1315367699",
    "osmHighway": "footway"
   }
  },
  {
   "type": "Feature",
   "geometry": {
    "type": "LineString",
    "coordinates": [
     [
      101.3453271,
      14.1647193
     ],
     [
      101.3452965,
      14.16469
     ],
     [
      101.3453061,
      14.1644036
     ],
     [
      101.3453396,
      14.1643868
     ],
     [
      101.3453396,
      14.1643868
     ]
    ]
   },
   "properties": {
    "id": "osm_w1315367700_0",
    "type": "road",
    "oneway": false,
    "lit": false,
    "covered": false,
    "source": "osm:way/1315367700",
    "osmHighway": "service"
   }
  },
  {
   "type": "Feature",
   "geometry": {
    "type": "LineString",
    "coordinates": [
     [
      101.3453271,
      14.1647193
     ],
     [
      101.3453617,
      14.1646934
     ],
     [
      101.3453693,
      14.164406
     ],
     [
      101.3453396,
      14.1643868
     ]
    ]
   },
   "properties": {
    "id": "osm_w1315367701_0",
    "type": "road",
    "oneway": false,
    "lit": false,
    "covered": false,
    "source": "osm:way/1315367701",
    "osmHighway": "service"
   }
  },
  {
   "type": "Feature",
   "geometry": {
    "type": "LineString",
    "coordinates": [
     [
      101.3450599,
      14.1650967
     ],
     [
      101.3456608,
      14.1651045
     ],
     [
      101.3456608,
      14.1651382
     ]
    ]
   },
   "properties": {
    "id": "osm_w1315367703_0",
    "type": "footway",
    "oneway": false,
    "lit": false,
    "covered": false,
    "source": "osm:way/1315367703",
    "osmHighway": "footway"
   }
  },
  {
   "type": "Feature",
   "geometry": {
    "type": "LineString",
    "coordinates": [
     [
      101.3610112,
      14.1610016
     ],
     [
      101.3611169,
      14.161057
     ]
    ]
   },
   "properties": {
    "id": "osm_w1315367704_0",
    "type": "footway",
    "oneway": false,
    "lit": false,
    "covered": false,
    "source": "osm:way/1315367704",
    "osmHighway": "footway"
   }
  },
  {
   "type": "Feature",
   "geometry": {
    "type": "LineString",
    "coordinates": [
     [
      101.3608346,
      14.1610339
     ],
     [
      101.3605145,
      14.1608477
     ],
     [
      101.3605452,
      14.1607971
     ]
    ]
   },
   "properties": {
    "id": "osm_w1315367705_0",
    "type": "footway",
    "oneway": false,
    "lit": false,
    "covered": false,
    "source": "osm:way/1315367705",
    "osmHighway": "footway"
   }
  },
  {
   "type": "Feature",
   "geometry": {
    "type": "LineString",
    "coordinates": [
     [
      101.3609215,
      14.1608795
     ],
     [
      101.3607913,
      14.1608119
     ]
    ]
   },
   "properties": {
    "id": "osm_w1315367706_0",
    "type": "footway",
    "oneway": false,
    "lit": false,
    "covered": false,
    "source": "osm:way/1315367706",
    "osmHighway": "footway"
   }
  },
  {
   "type": "Feature",
   "geometry": {
    "type": "LineString",
    "coordinates": [
     [
      101.3608208,
      14.161167
     ],
     [
      101.3610208,
      14.1612879
     ],
     [
      101.3610181,
      14.1613285
     ],
     [
      101.3610373,
      14.1613666
     ],
     [
      101.3610814,
      14.1613848
     ],
     [
      101.3611261,
      14.1613722
     ],
     [
      101.3611525,
      14.1613481
     ],
     [
      101.3611584,
      14.1613169
     ],
     [
      101.3611387,
      14.1612788
     ],
     [
      101.3611387,
      14.1612788
     ],
     [
      101.3611005,
      14.1612554
     ],
     [
      101.3610596,
      14.161257
     ],
     [
      101.3610208,
      14.1612879
     ]
    ]
   },
   "properties": {
    "id": "osm_w1315367707_0",
    "type": "road",
    "oneway": false,
    "lit": false,
    "covered": false,
    "source": "osm:way/1315367707",
    "osmHighway": "service"
   }
  },
  {
   "type": "Feature",
   "geometry": {
    "type": "LineString",
    "coordinates": [
     [
      101.3611387,
      14.1612788
     ],
     [
      101.3611996,
      14.1611912
     ]
    ]
   },
   "properties": {
    "id": "osm_w1315367708_0",
    "type": "footway",
    "oneway": false,
    "lit": false,
    "covered": false,
    "source": "osm:way/1315367708",
    "osmHighway": "footway"
   }
  },
  {
   "type": "Feature",
   "geometry": {
    "type": "LineString",
    "coordinates": [
     [
      101.3620176,
      14.1617772
     ],
     [
      101.3621129,
      14.1616441
     ]
    ]
   },
   "properties": {
    "id": "osm_w1315367709_0",
    "type": "footway",
    "oneway": false,
    "lit": false,
    "covered": false,
    "source": "osm:way/1315367709",
    "osmHighway": "footway"
   }
  },
  {
   "type": "Feature",
   "geometry": {
    "type": "LineString",
    "coordinates": [
     [
      101.3427108,
      14.1566988
     ],
     [
      101.3425585,
      14.156516
     ],
     [
      101.3426636,
      14.1564398
     ],
     [
      101.3428159,
      14.1566206
     ]
    ]
   },
   "properties": {
    "id": "osm_w1315369167_0",
    "type": "road",
    "oneway": false,
    "lit": false,
    "covered": false,
    "source": "osm:way/1315369167",
    "osmHighway": "service"
   }
  },
  {
   "type": "Feature",
   "geometry": {
    "type": "LineString",
    "coordinates": [
     [
      101.3429222,
      14.1565302
     ],
     [
      101.3430786,
      14.1564028
     ]
    ]
   },
   "properties": {
    "id": "osm_w1315369170_0",
    "type": "road",
    "oneway": false,
    "lit": false,
    "covered": false,
    "source": "osm:way/1315369170",
    "osmHighway": "service"
   }
  },
  {
   "type": "Feature",
   "geometry": {
    "type": "LineString",
    "coordinates": [
     [
      101.3433356,
      14.158449
     ],
     [
      101.343885,
      14.1580325
     ],
     [
      101.343885,
      14.1580325
     ]
    ]
   },
   "properties": {
    "id": "osm_w1315370570_0",
    "type": "footway",
    "oneway": false,
    "lit": false,
    "covered": false,
    "source": "osm:way/1315370570",
    "osmHighway": "footway"
   }
  },
  {
   "type": "Feature",
   "geometry": {
    "type": "LineString",
    "coordinates": [
     [
      101.3475087,
      14.1588896
     ],
     [
      101.347544,
      14.1588541
     ],
     [
      101.347556,
      14.1588298
     ],
     [
      101.3475971,
      14.1587822
     ],
     [
      101.3476121,
      14.1587347
     ],
     [
      101.3476061,
      14.1586861
     ],
     [
      101.3476171,
      14.1586065
     ],
     [
      101.3476071,
      14.1585308
     ],
     [
      101.34757,
      14.1584405
     ],
     [
      101.347538,
      14.1583386
     ],
     [
      101.347538,
      14.1582638
     ],
     [
      101.3475491,
      14.1581858
     ]
    ]
   },
   "properties": {
    "id": "osm_w1323163716_0",
    "type": "footway",
    "oneway": false,
    "lit": false,
    "covered": false,
    "source": "osm:way/1323163716",
    "osmHighway": "path"
   }
  },
  {
   "type": "Feature",
   "geometry": {
    "type": "LineString",
    "coordinates": [
     [
      101.3483265,
      14.1574272
     ],
     [
      101.3483831,
      14.1574891
     ]
    ]
   },
   "properties": {
    "id": "osm_w1323163717_0",
    "type": "footway",
    "oneway": false,
    "lit": false,
    "covered": false,
    "source": "osm:way/1323163717",
    "osmHighway": "path"
   }
  },
  {
   "type": "Feature",
   "geometry": {
    "type": "LineString",
    "coordinates": [
     [
      101.3483451,
      14.1579992
     ],
     [
      101.3483451,
      14.1579992
     ],
     [
      101.3482717,
      14.157903
     ]
    ]
   },
   "properties": {
    "id": "osm_w1323163718_0",
    "type": "footway",
    "oneway": false,
    "lit": false,
    "covered": false,
    "source": "osm:way/1323163718",
    "osmHighway": "footway"
   }
  },
  {
   "type": "Feature",
   "geometry": {
    "type": "LineString",
    "coordinates": [
     [
      101.366588,
      14.1614142
     ],
     [
      101.3664671,
      14.1614752
     ],
     [
      101.3653461,
      14.1620408
     ]
    ]
   },
   "properties": {
    "id": "osm_w1327375444_0",
    "type": "road",
    "oneway": false,
    "lit": false,
    "covered": false,
    "source": "osm:way/1327375444",
    "osmHighway": "residential"
   }
  },
  {
   "type": "Feature",
   "geometry": {
    "type": "LineString",
    "coordinates": [
     [
      101.365161,
      14.1638677
     ],
     [
      101.3652638,
      14.1638492
     ],
     [
      101.3653793,
      14.1638357
     ],
     [
      101.3654888,
      14.1638282
     ],
     [
      101.3655103,
      14.1638234
     ],
     [
      101.3656214,
      14.1638059
     ]
    ]
   },
   "properties": {
    "id": "osm_w1333700466_0",
    "type": "footway",
    "oneway": false,
    "lit": false,
    "covered": false,
    "source": "osm:way/1333700466",
    "osmHighway": "path"
   }
  },
  {
   "type": "Feature",
   "geometry": {
    "type": "LineString",
    "coordinates": [
     [
      101.3651267,
      14.1636193
     ],
     [
      101.3652266,
      14.1636088
     ],
     [
      101.3653625,
      14.1635854
     ],
     [
      101.3654136,
      14.1635709
     ],
     [
      101.3654644,
      14.1635507
     ],
     [
      101.3655783,
      14.1635302
     ]
    ]
   },
   "properties": {
    "id": "osm_w1333700467_0",
    "type": "footway",
    "oneway": false,
    "lit": false,
    "covered": false,
    "source": "osm:way/1333700467",
    "osmHighway": "path"
   }
  },
  {
   "type": "Feature",
   "geometry": {
    "type": "LineString",
    "coordinates": [
     [
      101.3611846,
      14.1608584
     ],
     [
      101.3612535,
      14.1608947
     ]
    ]
   },
   "properties": {
    "id": "osm_w1333774911_0",
    "type": "footway",
    "oneway": false,
    "lit": false,
    "covered": false,
    "source": "osm:way/1333774911",
    "osmHighway": "footway"
   }
  },
  {
   "type": "Feature",
   "geometry": {
    "type": "LineString",
    "coordinates": [
     [
      101.3612635,
      14.1607359
     ],
     [
      101.361335,
      14.1607708
     ]
    ]
   },
   "properties": {
    "id": "osm_w1333774912_0",
    "type": "footway",
    "oneway": false,
    "lit": false,
    "covered": false,
    "source": "osm:way/1333774912",
    "osmHighway": "footway"
   }
  },
  {
   "type": "Feature",
   "geometry": {
    "type": "LineString",
    "coordinates": [
     [
      101.3482708,
      14.1580537
     ],
     [
      101.3483451,
      14.1579992
     ]
    ]
   },
   "properties": {
    "id": "stitch_001",
    "type": "footway",
    "oneway": false,
    "lit": false,
    "covered": false,
    "synthetic": true,
    "source": "osm_import.py:stitch",
    "lengthM": 10.0
   }
  },
  {
   "type": "Feature",
   "geometry": {
    "type": "LineString",
    "coordinates": [
     [
      101.343931,
      14.1579418
     ],
     [
      101.343885,
      14.1580325
     ]
    ]
   },
   "properties": {
    "id": "stitch_002",
    "type": "footway",
    "oneway": false,
    "lit": false,
    "covered": false,
    "synthetic": true,
    "source": "osm_import.py:stitch",
    "lengthM": 11.2
   }
  },
  {
   "type": "Feature",
   "geometry": {
    "type": "LineString",
    "coordinates": [
     [
      101.3628846,
      14.1622865
     ],
     [
      101.3629592,
      14.1623237
     ]
    ]
   },
   "properties": {
    "id": "stitch_003",
    "type": "footway",
    "oneway": false,
    "lit": false,
    "covered": false,
    "synthetic": true,
    "source": "osm_import.py:stitch",
    "lengthM": 9.0
   }
  },
  {
   "type": "Feature",
   "geometry": {
    "type": "LineString",
    "coordinates": [
     [
      101.3646895,
      14.1629955
     ],
     [
      101.3647624,
      14.1630315
     ]
    ]
   },
   "properties": {
    "id": "stitch_004",
    "type": "footway",
    "oneway": false,
    "lit": false,
    "covered": false,
    "synthetic": true,
    "source": "osm_import.py:stitch",
    "lengthM": 8.8
   }
  },
  {
   "type": "Feature",
   "geometry": {
    "type": "LineString",
    "coordinates": [
     [
      101.364774,
      14.1631281
     ],
     [
      101.3647648,
      14.1630313
     ]
    ]
   },
   "properties": {
    "id": "stitch_005",
    "type": "footway",
    "oneway": false,
    "lit": false,
    "covered": false,
    "synthetic": true,
    "source": "osm_import.py:stitch",
    "lengthM": 10.8
   }
  },
  {
   "type": "Feature",
   "geometry": {
    "type": "LineString",
    "coordinates": [
     [
      101.364111,
      14.1628036
     ],
     [
      101.364118,
      14.1627587
     ]
    ]
   },
   "properties": {
    "id": "stitch_006",
    "type": "footway",
    "oneway": false,
    "lit": false,
    "covered": false,
    "synthetic": true,
    "source": "osm_import.py:stitch",
    "lengthM": 5.1
   }
  },
  {
   "type": "Feature",
   "geometry": {
    "type": "LineString",
    "coordinates": [
     [
      101.3453433,
      14.1642892
     ],
     [
      101.3453396,
      14.1643868
     ]
    ]
   },
   "properties": {
    "id": "stitch_007",
    "type": "footway",
    "oneway": false,
    "lit": false,
    "covered": false,
    "synthetic": true,
    "source": "osm_import.py:stitch",
    "lengthM": 10.9
   }
  },
  {
   "type": "Feature",
   "geometry": {
    "type": "LineString",
    "coordinates": [
     [
      101.3432389,
      14.1651022
     ],
     [
      101.3433169,
      14.1651571
     ]
    ]
   },
   "properties": {
    "id": "stitch_008",
    "type": "footway",
    "oneway": false,
    "lit": false,
    "covered": false,
    "synthetic": true,
    "source": "osm_import.py:stitch",
    "lengthM": 10.4
   }
  },
  {
   "type": "Feature",
   "geometry": {
    "type": "LineString",
    "coordinates": [
     [
      101.3457917,
      14.1583493
     ],
     [
      101.3457328,
      14.1582761
     ]
    ]
   },
   "properties": {
    "id": "stitch_009",
    "type": "footway",
    "oneway": false,
    "lit": false,
    "covered": false,
    "synthetic": true,
    "source": "osm_import.py:stitch",
    "lengthM": 10.3
   }
  },
  {
   "type": "Feature",
   "geometry": {
    "type": "LineString",
    "coordinates": [
     [
      101.345872,
      14.1582887
     ],
     [
      101.345813,
      14.1582154
     ]
    ]
   },
   "properties": {
    "id": "stitch_010",
    "type": "footway",
    "oneway": false,
    "lit": false,
    "covered": false,
    "synthetic": true,
    "source": "osm_import.py:stitch",
    "lengthM": 10.3
   }
  },
  {
   "type": "Feature",
   "geometry": {
    "type": "LineString",
    "coordinates": [
     [
      101.3456507,
      14.1593431
     ],
     [
      101.3457089,
      14.1594165
     ]
    ]
   },
   "properties": {
    "id": "stitch_011",
    "type": "footway",
    "oneway": false,
    "lit": false,
    "covered": false,
    "synthetic": true,
    "source": "osm_import.py:stitch",
    "lengthM": 10.3
   }
  },
  {
   "type": "Feature",
   "geometry": {
    "type": "LineString",
    "coordinates": [
     [
      101.3492487,
      14.1574323
     ],
     [
      101.3493152,
      14.1575131
     ]
    ]
   },
   "properties": {
    "id": "stitch_012",
    "type": "footway",
    "oneway": false,
    "lit": false,
    "covered": false,
    "synthetic": true,
    "source": "osm_import.py:stitch",
    "lengthM": 11.5
   }
  },
  {
   "type": "Feature",
   "geometry": {
    "type": "LineString",
    "coordinates": [
     [
      101.3453383,
      14.1638708
     ],
     [
      101.3453018,
      14.1638115
     ]
    ]
   },
   "properties": {
    "id": "stitch_014",
    "type": "footway",
    "oneway": false,
    "lit": false,
    "covered": false,
    "synthetic": true,
    "source": "osm_import.py:stitch",
    "lengthM": 7.7
   }
  },
  {
   "type": "Feature",
   "geometry": {
    "type": "LineString",
    "coordinates": [
     [
      101.3611996,
      14.1611912
     ],
     [
      101.3611387,
      14.1612788
     ]
    ]
   },
   "properties": {
    "id": "stitch_015",
    "type": "footway",
    "oneway": false,
    "lit": false,
    "covered": false,
    "synthetic": true,
    "source": "osm_import.py:stitch",
    "lengthM": 11.7
   }
  },
  {
   "type": "Feature",
   "geometry": {
    "type": "LineString",
    "coordinates": [
     [
      101.343885,
      14.1580325
     ],
     [
      101.343931,
      14.1579418
     ]
    ]
   },
   "properties": {
    "id": "stitch_016",
    "type": "footway",
    "oneway": false,
    "lit": false,
    "covered": false,
    "synthetic": true,
    "source": "osm_import.py:stitch",
    "lengthM": 11.2
   }
  },
  {
   "type": "Feature",
   "geometry": {
    "type": "LineString",
    "coordinates": [
     [
      101.3483831,
      14.1574891
     ],
     [
      101.3483297,
      14.1574247
     ]
    ]
   },
   "properties": {
    "id": "stitch_017",
    "type": "footway",
    "oneway": false,
    "lit": false,
    "covered": false,
    "synthetic": true,
    "source": "osm_import.py:stitch",
    "lengthM": 9.2
   }
  },
  {
   "type": "Feature",
   "geometry": {
    "type": "LineString",
    "coordinates": [
     [
      101.3611846,
      14.1608584
     ],
     [
      101.3611139,
      14.1608207
     ]
    ]
   },
   "properties": {
    "id": "stitch_018",
    "type": "footway",
    "oneway": false,
    "lit": false,
    "covered": false,
    "synthetic": true,
    "source": "osm_import.py:stitch",
    "lengthM": 8.7
   }
  },
  {
   "type": "Feature",
   "geometry": {
    "type": "LineString",
    "coordinates": [
     [
      101.3612635,
      14.1607359
     ],
     [
      101.3611574,
      14.160724
     ]
    ]
   },
   "properties": {
    "id": "stitch_019",
    "type": "footway",
    "oneway": false,
    "lit": false,
    "covered": false,
    "synthetic": true,
    "source": "osm_import.py:stitch",
    "lengthM": 11.5
   }
  }
 ]
}
